{"type":"FeatureCollection","name":"BKG VG250 2026 municipalities DE-04","source_url":"https://daten.gdz.bkg.bund.de/produkte/vg/vg250_ebenen_0101/aktuell/vg250_01-01.utm32s.gpkg.ebenen.zip","source_sha256":"6b096eb4862b4eafda9294e425fb5a6d0e7773eb5815a4d4edc78b639ec2728f","attribution":"© BKG (2026) dl-de/by-2-0 (see licence)","status":"research_only_not_published","features":[{"type":"Feature","id":"04011000","properties":{"ags8":"04011000","county_ags5":"04011","state_code":"04","name_de":"Bremen","valid_at":"2026-01-01","source":"BKG_VG250_2026","part_count":2,"simplified_tolerance_m":80},"geometry":{"type":"MultiPolygon","coordinates":[[[[8.50589969108982,53.227861338222496],[8.51733384551507,53.22849650607023],[8.518669713810706,53.22614977696506],[8.521094285449767,53.22645066028309],[8.520697005595647,53.222935190293505],[8.523010744985884,53.22319333386813],[8.523812842738254,53.2205593662984],[8.526411770503566,53.220943850255296],[8.53023473630825,53.21608950114748],[8.537107637678456,53.21480615844382],[8.540782167062627,53.21537751715179],[8.54367075422711,53.213067909174704],[8.546730618893946,53.212972887843065],[8.55369891116622,53.207805800279864],[8.566405422036384,53.21355977414069],[8.572281808130077,53.210769071940675],[8.578477887832245,53.217269522799896],[8.599039075631785,53.212546229148494],[8.595812800656992,53.206435893100796],[8.581746055649885,53.200326890887325],[8.581097701716127,53.19870724629533],[8.584653462976965,53.19609047587901],[8.580097637198948,53.19312579119309],[8.580352119106768,53.19002768402052],[8.588962219410073,53.18998258932657],[8.592894938064505,53.18696881226364],[8.591117860965646,53.186869175345336],[8.593251436217153,53.183633717573706],[8.596575954261297,53.18368547100747],[8.599260619966747,53.18653733748274],[8.60689168269729,53.18766266653725],[8.609147018733076,53.18883046264574],[8.609010790666392,53.19201135147345],[8.622121309815054,53.195279273876004],[8.621773234062415,53.197126167417075],[8.625922606493328,53.19708186305198],[8.627994029675639,53.19837235205318],[8.632037307973535,53.19552989455902],[8.63439206918312,53.196141253193204],[8.637200975081688,53.19486229542442],[8.640395120252586,53.192504815268364],[8.639302230326612,53.19117976726116],[8.64366642081236,53.18922400748962],[8.64775037810369,53.18786523819789],[8.652338930433919,53.18839315500672],[8.65474077367362,53.1864422934974],[8.652625456231489,53.18476495501435],[8.653601082787002,53.18326912069876],[8.657479230342425,53.18215868759074],[8.659029626002969,53.17728169287223],[8.662108957700166,53.17759784349349],[8.663828356869017,53.17624384322985],[8.670389179425658,53.177272244809124],[8.671365458317203,53.17899520489327],[8.674706128077021,53.17891920232636],[8.675728796233237,53.17517604936078],[8.67701735726187,53.17550096211606],[8.679428905402755,53.17617525655215],[8.678466672780697,53.177734428711155],[8.688089232654027,53.17920801312353],[8.691201059543376,53.18142995130835],[8.697524031394662,53.18309672287219],[8.699357718384976,53.18547943027328],[8.702449320653622,53.18123604124475],[8.701196148028533,53.17819655017227],[8.70629256771485,53.1754211188289],[8.709577765143244,53.176970444943656],[8.711557727587618,53.18208720386793],[8.71439646676508,53.18300239861021],[8.728652284343688,53.1802244897757],[8.730475324088568,53.175440558714584],[8.73355513910428,53.17289558157408],[8.73741688859222,53.17287035338198],[8.739297156918719,53.170748518825995],[8.743081930473839,53.17227749029676],[8.741246363869891,53.164635519872746],[8.74349647368609,53.16411039029954],[8.748454638124791,53.16584486871519],[8.75540581229822,53.16372336056485],[8.761738569396368,53.1651352243731],[8.769782827436694,53.16029510432254],[8.775395748750793,53.15868402246048],[8.777068381068553,53.1591391740468],[8.776255728931856,53.161564343878524],[8.78245937342716,53.163611686700605],[8.786993178904865,53.16320771982939],[8.789137013813777,53.16077414262081],[8.791497017290217,53.163576406620415],[8.794750254843194,53.16185054461414],[8.797141843904027,53.16384393020501],[8.798930802269473,53.16128836420261],[8.804109006710236,53.16240323720071],[8.807362698049081,53.160650079196266],[8.809520534312535,53.16290072499908],[8.813173488843933,53.161656434698784],[8.815091053926311,53.16393962660811],[8.818829299591119,53.162417620706236],[8.829227339059972,53.16437627657894],[8.827221727355516,53.16123796223652],[8.835431807482083,53.15694434392243],[8.839826704090417,53.15741766653871],[8.84185546514926,53.148233663244326],[8.845173340537729,53.14725827429384],[8.845588558489526,53.14557700585306],[8.853228497669093,53.143392950521154],[8.8580158609381,53.140112638691235],[8.857742234205846,53.13822082477409],[8.861770969198233,53.13763650593724],[8.861276179508861,53.134447007875245],[8.864023195201504,53.131723514843024],[8.874382496240468,53.1337768329646],[8.897914836946766,53.134168424852895],[8.903929660470956,53.13817618593199],[8.906514332051708,53.13740071045746],[8.908922608241182,53.1332152855231],[8.912143303872552,53.13261879953958],[8.917683025456657,53.13865166608509],[8.92102620108759,53.139656922747896],[8.922609892639914,53.14346255399773],[8.920907502258306,53.144654356160466],[8.930809002940322,53.147542029652634],[8.931839933697905,53.14925452990785],[8.935978106009687,53.14980202253063],[8.9367672323801,53.15116973038184],[8.945082912176156,53.15201299022198],[8.946787250241886,53.14990382397201],[8.956631109759371,53.147241303464554],[8.960518157090268,53.142120575916316],[8.97071007277926,53.134075797930294],[8.980347391110579,53.13136453108069],[8.984185253029557,53.126070929866664],[8.978884783024515,53.12373037630551],[8.967369547291328,53.12219291526497],[8.961930109179516,53.119589120734005],[8.95332552516822,53.11862637273364],[8.947017836743894,53.11610080901136],[8.959388732736326,53.11017046655006],[8.962989042171387,53.10029863622719],[8.970474093999531,53.10157042602546],[8.979457254115937,53.09925498429178],[8.981523847995906,53.096493452812275],[8.988372046744049,53.098475518289014],[8.990913201572981,53.09667276112628],[8.986422649738104,53.09563716635978],[8.983647290994835,53.09337294477348],[8.965676498799732,53.09000158538559],[8.961377207129189,53.08521811228192],[8.965735401893323,53.08270145842528],[8.96357727763277,53.07174092054129],[8.967714073926796,53.06356439387455],[8.962676143116042,53.06114674602271],[8.963728919766789,53.0574262167996],[8.964564421796334,53.0561892793215],[8.969779855763583,53.05684822693877],[8.973380530822281,53.051075227463464],[8.976550880247046,53.05149675015155],[8.980267134118522,53.046747056617306],[8.966785901713298,53.03684956004254],[8.963392150511266,53.03706760656897],[8.956725679964377,53.0340252076258],[8.950135214955726,53.03267381697593],[8.948969741080546,53.030682850051754],[8.94568549472846,53.030484018574164],[8.945935056452447,53.02483920022067],[8.938130436888125,53.02498564164524],[8.935915521762624,53.013667038203344],[8.929354271843877,53.01424465237988],[8.928866177765581,53.01287160913157],[8.921862030303249,53.01487622625779],[8.92147536875103,53.01233552727187],[8.917734253527975,53.01314124831745],[8.915827047823045,53.01102137832633],[8.897476757653605,53.01299884182622],[8.891157226064884,53.01538987417485],[8.884579953387798,53.02325387716446],[8.867234971724505,53.033003812890236],[8.865883868818269,53.03566528171691],[8.867006164667847,53.04083261505695],[8.863378372898113,53.040496256073446],[8.861867115187339,53.03617788248591],[8.864097640943895,53.033440805136664],[8.864989860275935,53.02714700874025],[8.868606499512488,53.02492050370682],[8.866756113919829,53.02211723566238],[8.854025742246183,53.02077708714045],[8.851531508383847,53.01927769835211],[8.850792363957813,53.01660776194391],[8.847535183518248,53.017676975702585],[8.849840640283935,53.02337120632094],[8.841212633173223,53.021268838116946],[8.83809831149181,53.018420922169966],[8.831091930507712,53.02113971374429],[8.822005429209819,53.021266771745374],[8.818452357586715,53.02254864147491],[8.809484169182278,53.030904115000276],[8.789370897608038,53.03764641875313],[8.778297674268225,53.039666684469864],[8.776612383106151,53.04310481620381],[8.77269944666952,53.045117636218656],[8.770704765839996,53.05340697205277],[8.767572486700068,53.051456236640355],[8.765907034843675,53.05244867156448],[8.762224722516281,53.05083167074944],[8.763153718764856,53.04626985930401],[8.75473715125746,53.04284127285556],[8.757184101586446,53.04088649015116],[8.756270723448333,53.0387805426716],[8.751784750354204,53.0381514223796],[8.742761634158073,53.04073401603654],[8.741704159537017,53.03952918936974],[8.739591024711054,53.04021121422411],[8.737959045053916,53.03735511849535],[8.733754852057363,53.03728531512893],[8.73286915552038,53.036301329104404],[8.734857622000671,53.03469354536211],[8.731491653920411,53.034932532151025],[8.721466039609576,53.04053276467426],[8.71862106655668,53.040288673236084],[8.7098011377041,53.04601821924454],[8.706861641783675,53.052591467242536],[8.710242303807567,53.06659803684854],[8.709154809818545,53.07590833415488],[8.706341898536518,53.07610494970757],[8.706320967641755,53.07779912923934],[8.700762704803548,53.08229426074139],[8.68803095359422,53.08573402281343],[8.674082011714,53.0866920057511],[8.666494272026275,53.09155879938764],[8.664919092762705,53.09462714136029],[8.66983109169978,53.10297470245187],[8.654898618766424,53.10886458534645],[8.653940910624044,53.11140382500261],[8.65768050325869,53.11849192720949],[8.651966922335292,53.116445418532784],[8.650097178159866,53.118269454755136],[8.651598158458714,53.12205076968411],[8.631066568331063,53.13817561562339],[8.626927086701851,53.14588116966679],[8.62360281661948,53.16321230209122],[8.61946530194199,53.167520758956535],[8.611684896692712,53.170329245679376],[8.581679925776303,53.17359377401409],[8.556542702711385,53.18165831238926],[8.535954642447631,53.186526859514274],[8.522678023908638,53.192508418339315],[8.515326323639176,53.19797929070676],[8.511716310599597,53.1972133890081],[8.504711920049067,53.20078605285292],[8.491660706684566,53.21643410856102],[8.48263060254366,53.2235779671913],[8.481735118740652,53.22644954262322],[8.48967368199751,53.22815361550859],[8.489810781848194,53.22678913779559],[8.491510855419246,53.22663719137417],[8.504608166721695,53.22891929662302],[8.50589969108982,53.227861338222496]]],[[[8.611903031525504,53.19744233587264],[8.613037882315357,53.198565780938885],[8.616397736632491,53.19702603908747],[8.615217568244377,53.195910918207616],[8.611903031525504,53.19744233587264]]],[[[8.522184923237777,53.59112934850848],[8.537356345567675,53.5973265921852],[8.542384498625285,53.595831146153024],[8.540691674459374,53.592841832368066],[8.547883197383008,53.58369992226935],[8.563277852340565,53.581263609140194],[8.564285131895742,53.58341869421857],[8.569512278716267,53.58271847809185],[8.573997447196687,53.578968321131164],[8.57735994237585,53.57840947664698],[8.573760517826328,53.57371524809551],[8.570169803223298,53.563556514807914],[8.56437747903859,53.55982472295363],[8.564772564018433,53.556693811352865],[8.569178414826988,53.5514091265835],[8.5617977622105,53.54887175254162],[8.522184923237777,53.59112934850848]]]]}},{"type":"Feature","id":"04012000","properties":{"ags8":"04012000","county_ags5":"04012","state_code":"04","name_de":"Bremerhaven","valid_at":"2026-01-01","source":"BKG_VG250_2026","part_count":2,"simplified_tolerance_m":80},"geometry":{"type":"MultiPolygon","coordinates":[[[[8.554828136945702,53.60314390854764],[8.558768776151807,53.60390696637975],[8.56286433966029,53.60151736893577],[8.580591904343164,53.59803678454653],[8.580713530166722,53.59698702310441],[8.592803953884289,53.59303981688917],[8.601400404979888,53.59556282652046],[8.612710172123759,53.60292437580046],[8.623296265703784,53.60533333423823],[8.640213652094104,53.60450314217766],[8.645667163311728,53.60169986178997],[8.646640265814744,53.60334132514636],[8.650632387030916,53.60256521991982],[8.637955731481828,53.59506742061806],[8.642715814575501,53.59255941283141],[8.628263884846682,53.58322711165013],[8.627125585433006,53.579120113551795],[8.618011084900552,53.57871604352854],[8.616802851405868,53.57437003613553],[8.619902402418562,53.573230769356094],[8.625154484953155,53.567315244415845],[8.630860355404863,53.555689588966445],[8.636077861250069,53.5536920946929],[8.646354348853647,53.555545671796615],[8.644110638099686,53.54920373715647],[8.645226852500508,53.54047271757461],[8.642051824941875,53.5416833824149],[8.64152157589074,53.53639900070269],[8.638655790488428,53.53495355637128],[8.639775421491107,53.52528946938905],[8.64427284258805,53.52239087562989],[8.645902962650776,53.518801853709846],[8.649158160033766,53.519578840145655],[8.652134242385927,53.51601712526126],[8.648232263452634,53.514303291362765],[8.650555157335658,53.51078166509536],[8.636637351213942,53.505439434169354],[8.637862526074914,53.50321966983882],[8.631272073633287,53.50158031070751],[8.631875865616617,53.49881043012437],[8.62633014701098,53.496123347861136],[8.619532379489165,53.489288988437444],[8.610148475653391,53.48613998260383],[8.606131181035463,53.48593821639254],[8.605904617435476,53.48423378630118],[8.601182445217193,53.484349174962986],[8.597173948401023,53.486076228586576],[8.591174348290023,53.484715961303905],[8.58301365579343,53.48660291974368],[8.577306586635439,53.485453277946405],[8.574954024250358,53.48617166464971],[8.573760277663782,53.48864307272088],[8.572129336283464,53.486999485509244],[8.57060780518763,53.48814331825763],[8.561960038220382,53.48519493886528],[8.538197404266914,53.48036018066711],[8.529713796252272,53.48034170042776],[8.518634111692135,53.47444590383213],[8.51554456555622,53.47680062095567],[8.511604095053878,53.47666452413462],[8.505789852943531,53.471178236695316],[8.49265189177034,53.47241975949867],[8.492654024567752,53.475122886722694],[8.503487768367334,53.49296709666001],[8.516128633174683,53.50214811967949],[8.532156081451635,53.50920092248968],[8.55268423357762,53.516175644608545],[8.548105224811057,53.51994106564261],[8.55495512326511,53.52452965031607],[8.557317101476807,53.53075381012155],[8.556376714429188,53.53492210983767],[8.539360827303893,53.54881413361716],[8.50356717484719,53.57237960749813],[8.491970387773991,53.591571410611124],[8.483202468870545,53.60049898520077],[8.524171058833447,53.60669348876814],[8.526158867388595,53.60383991470867],[8.527392590963762,53.605971926661276],[8.532472258471136,53.60492932063748],[8.533651067763406,53.60761767769147],[8.554828136945702,53.60314390854764]],[[8.5617977622105,53.54887175254162],[8.569178414826988,53.5514091265835],[8.564772564018433,53.556693811352865],[8.56437747903859,53.55982472295363],[8.570169803223298,53.563556514807914],[8.573760517826328,53.57371524809551],[8.57735994237585,53.57840947664698],[8.573997447196687,53.578968321131164],[8.569512278716267,53.58271847809185],[8.564285131895742,53.58341869421857],[8.563277852340565,53.581263609140194],[8.547883197383008,53.58369992226935],[8.540691674459374,53.592841832368066],[8.542384498625285,53.595831146153024],[8.537356345567675,53.5973265921852],[8.522184923237777,53.59112934850848],[8.5617977622105,53.54887175254162]]],[[[8.651620551949826,53.60993232543191],[8.660884274078997,53.60708643580622],[8.657717087565846,53.60298561130885],[8.653641786018934,53.602870870482334],[8.652521558210173,53.60470569765309],[8.643769176617138,53.60547338658297],[8.645049697683557,53.60699363807059],[8.642627982631236,53.609213306572016],[8.643829537139117,53.61010320670462],[8.651620551949826,53.60993232543191]]]]}}]}
