{"type":"FeatureCollection","name":"BKG VG250 2026 municipalities DE-02","source_url":"https://daten.gdz.bkg.bund.de/produkte/vg/vg250_ebenen_0101/aktuell/vg250_01-01.utm32s.gpkg.ebenen.zip","source_sha256":"6b096eb4862b4eafda9294e425fb5a6d0e7773eb5815a4d4edc78b639ec2728f","attribution":"© BKG (2026) dl-de/by-2-0 (see licence)","status":"research_only_not_published","features":[{"type":"Feature","id":"02000000","properties":{"ags8":"02000000","county_ags5":"02000","state_code":"02","name_de":"Hamburg","valid_at":"2026-01-01","source":"BKG_VG250_2026","part_count":2,"simplified_tolerance_m":80},"geometry":{"type":"MultiPolygon","coordinates":[[[[9.772307485056684,53.54353130403519],[9.774388785408725,53.554323058157],[9.730104054813241,53.557580911942225],[9.734364927266695,53.565215563587664],[9.736960312637795,53.57738982250266],[9.742487476330744,53.57820562180886],[9.740774546270906,53.58033378305712],[9.737566129968846,53.579882696342],[9.736263386732588,53.58185157581908],[9.73710305519221,53.58301049424595],[9.73973826990881,53.58311232840036],[9.741073609099082,53.58628743134457],[9.745758815077322,53.58901781120135],[9.747260483238184,53.5917745861256],[9.743435992026043,53.597576174159855],[9.748433152842287,53.60389675243824],[9.755617617196956,53.602529448899475],[9.759101185735169,53.61092512639584],[9.753535447928135,53.61299431445571],[9.757996978307995,53.61811606627731],[9.760125953645865,53.62448168418652],[9.763474051021102,53.624923991849045],[9.763672583129011,53.62749505990266],[9.770293990029401,53.627462414716334],[9.768891621642421,53.622838508392995],[9.77063350400192,53.616229940632465],[9.78923185397765,53.611459676165126],[9.791142518121726,53.60901708986281],[9.794942036409163,53.61004742804119],[9.798122740377318,53.60751630796761],[9.796563799828437,53.60558169333151],[9.789554407971199,53.60397246889916],[9.797515592260266,53.59610090382186],[9.803555365550414,53.593282077366396],[9.80467352464479,53.59377337932319],[9.816157304408465,53.58621990482292],[9.824957924967256,53.58452794997544],[9.828781927697122,53.585290567738504],[9.836707190146168,53.587530186099364],[9.836699535902802,53.59155221364052],[9.84000781772095,53.59251343533052],[9.839670069915055,53.594811368173254],[9.845486822951468,53.59478003487305],[9.844720236295919,53.59654617073132],[9.849095691328879,53.597811237716755],[9.852109927959837,53.59734891605056],[9.858104137058868,53.59959068185014],[9.857945176490139,53.60218672876283],[9.861920450184591,53.607221322428856],[9.868023963699128,53.60934632799902],[9.870480084928301,53.614013406582565],[9.879147218868015,53.61980798737612],[9.889685196515691,53.622326853619334],[9.885079826493484,53.62352169005549],[9.88784148224385,53.62706668480256],[9.894490842557513,53.62984161472466],[9.892201275349638,53.631289913737845],[9.896241462749344,53.632076587232525],[9.896924242008291,53.63486572609745],[9.900702781064505,53.637148403829315],[9.90027382411092,53.639761065333204],[9.904691425340184,53.641795114528605],[9.905366421285022,53.652194334115286],[9.911422196312902,53.65332253939331],[9.914047881001496,53.65269499016439],[9.914796354227963,53.65494561571009],[9.917527951394224,53.654173977755164],[9.920810423156764,53.655466306590675],[9.92507863533172,53.65313310198758],[9.935129184462703,53.652038255851984],[9.93645783476382,53.65327102077775],[9.937575112287858,53.65227762023151],[9.945376214072935,53.652928191157216],[9.9497899413701,53.65073753153321],[9.952698509375262,53.650355078820844],[9.95365097794462,53.65159026030631],[9.959388712253508,53.64990826782954],[9.963090245877794,53.65021190821473],[9.965451435994638,53.64882043701224],[9.968938633446893,53.650578579558946],[9.973715390013544,53.64826283244293],[9.975194028277862,53.649805581304754],[9.97865723251317,53.648544320603335],[9.981825877456437,53.64915065160226],[9.985599002376695,53.64723457417944],[9.988940704704675,53.64856025875871],[9.990516424413872,53.65090290340636],[9.987679506190787,53.65551854785364],[9.991274268011301,53.658512747378495],[9.990418252308869,53.66969033089403],[9.99241863085202,53.675925143007554],[9.998695505617977,53.6814674592638],[10.040778727859,53.68199003931613],[10.05045629590169,53.67694009905568],[10.069265382290476,53.679450559112325],[10.065942854381836,53.68500166578935],[10.067134556758125,53.68597579870329],[10.061606244292184,53.686156043644516],[10.060669695401645,53.68839732406467],[10.065662822796776,53.68899448808083],[10.069387932808018,53.696253265340076],[10.071364810618768,53.695632536195724],[10.073789699618054,53.69877479022966],[10.077504785338927,53.6997488761644],[10.076538138315382,53.70106632519697],[10.079097454814061,53.704156785314694],[10.069628136123761,53.70624463782736],[10.073566464704088,53.70922317857518],[10.06951898475208,53.71116783035762],[10.0710676080558,53.71231424272476],[10.075109174661222,53.710980474826385],[10.080016639049708,53.7140609429479],[10.076339390942211,53.715297282993035],[10.081842137915972,53.72041999162382],[10.102355461568829,53.717466158243745],[10.104019694557481,53.714910842028694],[10.108926565037923,53.71439811054557],[10.11592688365792,53.71577666387092],[10.118339904265582,53.71335240649052],[10.121056101322893,53.71339516741469],[10.126388389547953,53.71962999933935],[10.139942914267762,53.72568233982568],[10.144984003621701,53.72476756359432],[10.15115996839223,53.72997150531858],[10.16150151642883,53.7333572486624],[10.16287410269603,53.73808674380674],[10.16823743790743,53.73823597146423],[10.185684201433773,53.73129161173943],[10.188917436480684,53.730455235740784],[10.19367097879207,53.731015115662245],[10.191637500340482,53.722897173550265],[10.181587983521167,53.70919738122977],[10.173901659002887,53.71279710088478],[10.166187862851867,53.7110256446009],[10.168794500178418,53.70879548557268],[10.15752325899435,53.70502906187625],[10.15720353659498,53.70288871540617],[10.160822706017873,53.700381674758965],[10.159454876696309,53.69081886638909],[10.1523896957003,53.68651352305158],[10.153257276843522,53.68400022010953],[10.151782173802658,53.68257019123986],[10.144831304796002,53.679753489381405],[10.140273002440095,53.68012668059291],[10.141212386524375,53.678152743901336],[10.143246259093083,53.67556199969573],[10.145026848322685,53.676178086373376],[10.153013011270472,53.67474517495824],[10.154124134348399,53.67583545030864],[10.155844480010341,53.67259670924155],[10.160377262490949,53.67149509983967],[10.15552334940216,53.671383959333326],[10.155970535211345,53.669502415138695],[10.158758245328883,53.669310439149335],[10.161757543358698,53.671058618810534],[10.165562620956365,53.66813089466881],[10.16918083438767,53.66783512827561],[10.17248543282093,53.66900296570026],[10.173865452715813,53.664523137294104],[10.177643742814785,53.662987623843634],[10.182902768666318,53.66373797065028],[10.188090045446089,53.65844972812822],[10.187431441820635,53.65652722300081],[10.196056384186722,53.6547039290783],[10.195144703973284,53.65230537955528],[10.198619190571522,53.646436182701144],[10.189664917060076,53.63838060836904],[10.198964932280408,53.635762707224494],[10.202236545711708,53.63681869509383],[10.21014750948548,53.63651720868096],[10.22176127395348,53.63372253361579],[10.217886234842771,53.63118896833902],[10.215893417700368,53.63134131149651],[10.217324273183817,53.626122452664646],[10.211430920085121,53.6230334174149],[10.20814344624347,53.62419378696714],[10.205418901176792,53.62371862014397],[10.205803182385463,53.62158251588416],[10.188952192560386,53.61301421537206],[10.195185348903657,53.60758460090119],[10.19675434022693,53.60040017943275],[10.196044504053285,53.597643391061574],[10.191658335675982,53.59567912158043],[10.201290306283928,53.5840184268881],[10.198321764246694,53.58219926930361],[10.195760377203328,53.58470673928033],[10.165305411503414,53.582349446634346],[10.16327583412957,53.5840496268974],[10.163776121894058,53.585758253434776],[10.161722830930596,53.58569873604922],[10.158944815158243,53.581152910940936],[10.152557986507913,53.57790073460772],[10.151803046442245,53.572210668073865],[10.147442322546192,53.56632162623061],[10.148368142470707,53.56397487414289],[10.160538739884382,53.55768295799348],[10.159458235653526,53.554912564157725],[10.152881080680874,53.550529129710085],[10.151152406675942,53.545017904406826],[10.154014167242698,53.54425086520529],[10.152582687168007,53.539792799341264],[10.154172320328557,53.53984133040038],[10.155571690846228,53.53645752559396],[10.161699345030069,53.53795716160379],[10.17081296012148,53.53722529886265],[10.170514982667212,53.53463349835511],[10.165655170692823,53.534736682819634],[10.163052643358975,53.53064971589013],[10.16406872483245,53.529283009314675],[10.161700335692426,53.525938432948955],[10.1646430363407,53.519939164009784],[10.170680969435656,53.51906580114194],[10.186644590416046,53.51276591555395],[10.189708982103646,53.51263100617061],[10.200276465088693,53.514226346178354],[10.210601309390594,53.52004653743716],[10.214608161675109,53.51289257040738],[10.219136306983723,53.5105409543774],[10.218609878401713,53.508005649639756],[10.223945169476385,53.505771154748736],[10.218950481780016,53.5019047812807],[10.218607039342949,53.49905535426647],[10.226059605647443,53.49545964992786],[10.233074177760884,53.49677804551952],[10.23667854800361,53.49635445352638],[10.235053639556988,53.49092324446602],[10.237081560203176,53.48946281346347],[10.238366620894608,53.483264110079254],[10.248487792103361,53.48005163189776],[10.25212773638351,53.47730845085816],[10.257892506735734,53.47814666017043],[10.26026435390299,53.47690218345456],[10.258806613989501,53.47627927570663],[10.259780745952991,53.47443895789233],[10.264325919493068,53.47513968917835],[10.265197815184315,53.46983934140777],[10.272551313799832,53.467948294438536],[10.269290108757957,53.46410886152822],[10.297844032949042,53.45159163412944],[10.298962981402534,53.450524057909846],[10.295629322766496,53.44871225928925],[10.30164568890255,53.443195301053294],[10.307983818556858,53.442908785804114],[10.311646183039482,53.45232345408552],[10.316177924240945,53.452285367057655],[10.325959157504808,53.44963953853979],[10.315487985133974,53.44108748433151],[10.314797919855291,53.43963410130099],[10.31899306158873,53.43772216213917],[10.318190260884288,53.43533051053141],[10.30788633922863,53.434784318710584],[10.307954146350383,53.433201102335445],[10.303004277358783,53.432260642665334],[10.28481846345756,53.424591422941056],[10.260041406369691,53.418524421161536],[10.252957588439866,53.413325719047336],[10.243785956658321,53.3995734615397],[10.238791260537882,53.396495558538234],[10.231798129786336,53.3950775885432],[10.218817631542539,53.39571803296808],[10.198534729923264,53.398608159847],[10.18075747169672,53.39635310511244],[10.167735069193881,53.39850248532598],[10.152192377387331,53.40732975351156],[10.144641828708027,53.416525922258366],[10.137913833690774,53.421547249064886],[10.13268369692295,53.423410210581494],[10.116474998499168,53.4242167823304],[10.108735530381301,53.426674026959574],[10.103505541736679,53.430832549274044],[10.094795770290636,53.442740601546134],[10.084602253568866,53.450401060912256],[10.079259803395166,53.45333956059144],[10.066507243953758,53.45643170540815],[10.051810704153421,53.463918938392595],[10.042038461142996,53.456807598592796],[10.04405054240277,53.45486531407283],[10.041097494448024,53.451549280170276],[10.049322122618651,53.449701223958535],[10.045738931293691,53.446741050621206],[10.035875719631038,53.4470457759449],[10.032316945229521,53.444118019503044],[10.021191686822368,53.446786340796116],[10.014711264072487,53.44212432488527],[10.025660608339106,53.43810988940535],[10.029322958337287,53.43515647979578],[10.021588321209444,53.43061703043513],[10.017818189757014,53.43021892906952],[10.018640369010784,53.429309071151486],[10.010190781090376,53.42870507076242],[10.009773511215045,53.42946515865138],[10.001580055331564,53.424830928023596],[9.996389542752596,53.4261129170245],[9.9929833941641,53.420086621782154],[9.98897593415456,53.42057332335362],[9.986817864372494,53.417284070159994],[9.984058459015603,53.41655356798872],[9.984432872202008,53.41541377799831],[9.974888824726554,53.414735343057096],[9.977557841336079,53.4192492275165],[9.97545546272325,53.421451100720034],[9.970929249467027,53.42375937231908],[9.964358565931581,53.42217619788442],[9.961040154601346,53.42409392732984],[9.96327262748662,53.427321035234975],[9.949211967470912,53.43094997327067],[9.942015790027396,53.421052418116396],[9.932325328651457,53.42117886265081],[9.928872006546337,53.42064163658355],[9.927943212660885,53.419181413394],[9.92455248373891,53.419623949958414],[9.91648732789105,53.414067878977406],[9.906566144931453,53.415790909306665],[9.907940610423598,53.418727336360895],[9.916452760375138,53.42486566832487],[9.91408000053774,53.42999847675145],[9.921486177653724,53.43655014991919],[9.916664027831038,53.44267447811987],[9.914557091899947,53.44264650623917],[9.91389893456062,53.44842908636864],[9.9044112881945,53.456794222269544],[9.901548546863758,53.45638088290102],[9.901583510822277,53.457322650295374],[9.89923722394069,53.45759656281564],[9.898793191011302,53.45511200153682],[9.89594543322919,53.45738500084838],[9.888774526749826,53.45064671390519],[9.885819137525482,53.45006134376449],[9.873373449788726,53.44237782576107],[9.869120381002043,53.44458409466783],[9.86665257053455,53.44006309792545],[9.862844599774098,53.44008914307349],[9.860421456449469,53.438062058035534],[9.860013040077032,53.43657617345382],[9.864568450425415,53.432177005861895],[9.86238747740358,53.42987659118214],[9.859136051662993,53.434053932736575],[9.836649492629821,53.45090998987797],[9.8136082319578,53.46242678759516],[9.807465885359102,53.462828246501424],[9.805944460353404,53.467101964636775],[9.803386211111219,53.46697069934994],[9.803014933881608,53.469484918531506],[9.79980437643061,53.46963746776159],[9.800471515215994,53.47530816052232],[9.798559975972163,53.475211696722354],[9.802426169820802,53.49325153829183],[9.79245421555185,53.4939226371867],[9.782231770824074,53.49146410838876],[9.784524770776944,53.50001170177835],[9.763793943929269,53.508106504090954],[9.77158543785503,53.522755848514606],[9.774923466108152,53.52060977321668],[9.774086761759733,53.51923185736415],[9.77726123278183,53.51807606586562],[9.778320126398892,53.51946144734687],[9.776262976575687,53.525071909554875],[9.774064421613739,53.524830739127495],[9.773766343312325,53.52764833720093],[9.769996065167785,53.52945033165989],[9.771522642616306,53.531067917356445],[9.76544170514882,53.541114561584926],[9.772307485056684,53.54353130403519]]],[[[8.506067333685918,53.928113207309856],[8.516904179648987,53.92280565538237],[8.517145396225837,53.921342863210995],[8.51467664583097,53.920994766659476],[8.517093526734687,53.92057012453107],[8.5146553426754,53.91764946289631],[8.50058841613814,53.912664209941],[8.486976415413121,53.91391154604523],[8.488028042691713,53.92319162011485],[8.492679923734679,53.93005953901982],[8.497869723006918,53.93191845649973],[8.503403695677152,53.92915121432054],[8.502982848101688,53.927899199182384],[8.506067333685918,53.928113207309856]]],[[[8.459373746385408,53.95738795912557],[8.445366596671954,53.95443589326405],[8.441948495615271,53.95035571266556],[8.437940829007877,53.94919475339792],[8.43636203113086,53.94653538891609],[8.431291855499909,53.94452816575138],[8.424158889118177,53.94476458442932],[8.420624000449902,53.94668917001541],[8.419906902154144,53.948717520068364],[8.423000270779934,53.95220119959063],[8.42552817544687,53.95283503988142],[8.429889505994858,53.95184243308537],[8.437832983487525,53.953571805965275],[8.437631390082247,53.958864469413776],[8.434388144583425,53.96165107120465],[8.436453779202377,53.96357881204274],[8.442991996257785,53.964308180011066],[8.460693895884788,53.959184740594],[8.459373746385408,53.95738795912557]]]]}}]}
