{"type":"FeatureCollection","name":"BKG VG250 2026 municipalities DE-11","source_url":"https://daten.gdz.bkg.bund.de/produkte/vg/vg250_ebenen_0101/aktuell/vg250_01-01.utm32s.gpkg.ebenen.zip","source_sha256":"6b096eb4862b4eafda9294e425fb5a6d0e7773eb5815a4d4edc78b639ec2728f","attribution":"© BKG (2026) dl-de/by-2-0 (see licence)","status":"research_only_not_published","features":[{"type":"Feature","id":"11000000","properties":{"ags8":"11000000","county_ags5":"11000","state_code":"11","name_de":"Berlin","valid_at":"2026-01-01","source":"BKG_VG250_2026","part_count":1,"simplified_tolerance_m":80},"geometry":{"type":"Polygon","coordinates":[[[13.479368900214615,52.67537881653976],[13.476011255785357,52.67038870173842],[13.475647694629524,52.666280656486244],[13.488219322347986,52.67055116581299],[13.485294838678112,52.65913131925571],[13.490831410043379,52.654728733804866],[13.51278152952814,52.64556194989923],[13.51887316988888,52.64747079374179],[13.520498828161486,52.645252267407784],[13.523100123545236,52.64543019491253],[13.517698657691689,52.62963591923383],[13.505817351482015,52.625828382032154],[13.505351602455738,52.6195582315938],[13.503243511334198,52.61877371621086],[13.500218077454445,52.61379113092162],[13.49675228493894,52.605093538975645],[13.499003893449784,52.605163614030864],[13.508153615601735,52.59218325657363],[13.522430212387889,52.59285250251876],[13.547112100225497,52.58788476625307],[13.559860799404952,52.58177506013346],[13.567569498689812,52.573740127673155],[13.570629933850999,52.5729152361972],[13.575562936275851,52.57376157794088],[13.578049884480654,52.57104305840876],[13.581539702272265,52.570881942684814],[13.584351073330275,52.55990737654227],[13.587494308949008,52.55526701868298],[13.58538711813194,52.54847164274363],[13.618857568636477,52.542947985321405],[13.635358749334454,52.54162879337327],[13.631941233155086,52.53814436058291],[13.62673238489212,52.5377485717716],[13.625906814477855,52.5301463748759],[13.656895567729986,52.529869512376905],[13.658572464500446,52.525811152548265],[13.644040010737294,52.51934159302145],[13.633318830242558,52.511826187808495],[13.624670748113788,52.495184263296444],[13.630800435423687,52.494120051444845],[13.615010815035122,52.480825056401486],[13.613538251881392,52.47575062007286],[13.6163973847275,52.4748935303579],[13.611517293546942,52.470627334490146],[13.615171226706188,52.46975871004554],[13.617127945872312,52.4711932031254],[13.6211117388024,52.470405861937714],[13.621027779732525,52.46856282805925],[13.625508626844313,52.468356508525005],[13.625808038139075,52.47371335597974],[13.628814903994655,52.4735001993333],[13.634900401789375,52.47579011482258],[13.640613123967148,52.47948463277331],[13.64821501028154,52.4787819600909],[13.660004370198715,52.47411640929193],[13.666980239461482,52.474167058054626],[13.670661019918954,52.47306199123962],[13.678786951132189,52.46937309757554],[13.68259937977361,52.46618485094821],[13.696824930358412,52.464160446878495],[13.698432701495287,52.45508021949042],[13.704443749554855,52.454264279349196],[13.705365294613296,52.455766428231875],[13.70405192434217,52.464238241087905],[13.699191031277953,52.4682022183675],[13.701324133041863,52.46814548265989],[13.713494298641555,52.46226266937202],[13.71644765485223,52.46219428975189],[13.72064211309867,52.456575980801354],[13.72911216080034,52.45059682400729],[13.734781533115848,52.450759535546],[13.73892996266802,52.44903657437254],[13.753219911482061,52.447597659701565],[13.754107210390746,52.44317174415641],[13.759028644481777,52.44257936571727],[13.757663671517127,52.43879054351821],[13.76046928410075,52.4384804462667],[13.759587218857948,52.436271883481425],[13.75229608864025,52.43708146184823],[13.754215103437227,52.44161149983418],[13.750536118150595,52.441458956325974],[13.744060180240057,52.4380691169026],[13.743118130512416,52.433998689784396],[13.73795859565767,52.43413775951914],[13.737623268290314,52.43234642383711],[13.74003952473327,52.43215530207855],[13.739460975029063,52.43005545781909],[13.742053909539898,52.42966148944114],[13.741384526357946,52.4269159641529],[13.737906269644752,52.42687467818308],[13.729513536495777,52.41739346757031],[13.733568719929373,52.41110064138215],[13.736665402118117,52.40996929185822],[13.738749108001542,52.40732177709169],[13.735165969616656,52.40600103532823],[13.734537746769988,52.401976069524686],[13.730992777590048,52.39995600102809],[13.728216161193817,52.40022868963305],[13.723344804551147,52.39858611516689],[13.71643662942959,52.39952743740745],[13.708905198805232,52.39545296868754],[13.705778666464258,52.395004624386424],[13.698993339809423,52.39016321862009],[13.697771647478191,52.39190743893167],[13.697119421843622,52.38985268987118],[13.690664759990716,52.385570494611315],[13.686711975761437,52.38581835003194],[13.685747783438767,52.384075875415334],[13.688061986605193,52.382910366744],[13.689753063428217,52.383315551495656],[13.694882660497694,52.38097373665701],[13.698633153363865,52.38158504118983],[13.696875512545159,52.37755399598946],[13.700507629331012,52.3779523421951],[13.69999728369477,52.37512134121137],[13.69157304233008,52.36771196759632],[13.687604008935777,52.36727339918627],[13.681929925594163,52.36956750134204],[13.671080361122629,52.366355657615074],[13.666915762983026,52.36213573624059],[13.66588763639761,52.358391101486085],[13.656975622473151,52.35157147966117],[13.655917520625609,52.34779806635123],[13.65107788918782,52.342666393149365],[13.651722958469199,52.33945761598692],[13.648400720944021,52.3382418358638],[13.642645204106834,52.340012318680124],[13.636291071477588,52.34703792560593],[13.63774902541123,52.34831451300129],[13.638637532747412,52.360161679197724],[13.647105428329171,52.36687546820668],[13.646806091245068,52.370160527261234],[13.641696955580914,52.370953943007734],[13.643364633330547,52.377390926540144],[13.633391386871267,52.3762838899294],[13.627949924020024,52.38179066983493],[13.604438755341612,52.374206201849205],[13.606295661472606,52.37964332697267],[13.600842047489195,52.384600004813926],[13.59522855446954,52.38682411517666],[13.59276211694213,52.39416968779653],[13.564905286148937,52.38828584057609],[13.535663613625532,52.389010455400125],[13.535083882569703,52.3934985932013],[13.538379367535262,52.40067906480067],[13.52826323818292,52.39839621619912],[13.521480697096754,52.401474270335754],[13.515165086388029,52.401434913202955],[13.479884997996955,52.39599663414083],[13.468337476165884,52.41943196723232],[13.462321602679364,52.42062443642526],[13.418772685880771,52.40991740661089],[13.418433069980027,52.40718055789526],[13.427585365448596,52.38682399246756],[13.420984876129769,52.37624714214244],[13.388520781927928,52.377968466215876],[13.387216841440178,52.38858416403241],[13.370454231097055,52.388463900035084],[13.372135216147633,52.39382382507787],[13.359201922470334,52.39842538360101],[13.343028478069494,52.407674169563194],[13.343248653073191,52.41161993903498],[13.311926097463267,52.39918547203617],[13.298548321896023,52.41203014318955],[13.29613013180599,52.41645128545191],[13.27445756954062,52.40513699010151],[13.267417331949467,52.40455236287592],[13.256563204876507,52.40655675846343],[13.249844003666714,52.404964789637155],[13.245797291577638,52.42080114604384],[13.222287982305858,52.42035668136648],[13.205149885946769,52.41586045525324],[13.195566839654699,52.41509482761881],[13.159345750859494,52.4028799480244],[13.157827476131633,52.396362157068225],[13.171356688694017,52.39776296180136],[13.1715215557529,52.39583346184348],[13.158888703649962,52.39390889853456],[13.142612287884704,52.39654478826985],[13.132249469613539,52.389402027567655],[13.134159511900421,52.388613234681934],[13.133589439241968,52.38691590456516],[13.130989522512174,52.38722485212953],[13.127094378585436,52.389280898386644],[13.127464901726965,52.39159455293288],[13.132411918583637,52.391423261812086],[13.138116669394375,52.39539271081166],[13.135013837361415,52.39716237133548],[13.136390485787857,52.398181285139174],[13.13339611623321,52.399437855993305],[13.12803662196669,52.39684648967676],[13.124875684316638,52.396879591127174],[13.117500868359983,52.40210690184577],[13.111635765621187,52.40422327947234],[13.107931813759357,52.40947752336264],[13.11259639301636,52.41001907556079],[13.11157057511761,52.41313661929086],[13.105866661638215,52.41257349547687],[13.103225064821423,52.410222422066305],[13.100835177371081,52.411071682707004],[13.100829166255595,52.412493629807386],[13.097221506710321,52.41245465574413],[13.098515556714293,52.41040194852807],[13.097294256192939,52.40938448237832],[13.09063599696308,52.411813883566516],[13.088333217992611,52.41961143544783],[13.095514893518015,52.42179298267977],[13.099596884590973,52.425304752390865],[13.104618625892245,52.424053217162715],[13.11253716657677,52.429224239696154],[13.111992766894105,52.43232176069032],[13.123176542773379,52.4393645466793],[13.11900042654341,52.444008939626436],[13.109223276234152,52.45061950869394],[13.111902078089422,52.454133855625734],[13.11258001754332,52.459203383667756],[13.110872419180522,52.46049126097499],[13.110798676844436,52.46606301187826],[13.116916841440482,52.472445125931756],[13.117798300095673,52.47896793621468],[13.12528457337462,52.48021768091121],[13.147938128313463,52.497961787710715],[13.16645760617784,52.51012428933208],[13.145380653489568,52.51759884165682],[13.143010192901379,52.51967552518539],[13.117392920286346,52.516995326217945],[13.119733094278262,52.53104488533311],[13.13061743845453,52.55635396899543],[13.136295813800182,52.55274763295491],[13.143843610144879,52.55206946885384],[13.145664779126871,52.55291135781062],[13.147145290364518,52.55473251744984],[13.145955110475398,52.560076630569164],[13.152953085427558,52.57278142588813],[13.152971304429713,52.57832393294719],[13.14960326584648,52.58331095493438],[13.132092465273512,52.57969904209142],[13.13043273157186,52.58312752069752],[13.12809695370894,52.58309743523721],[13.128987291284636,52.58744210333302],[13.135044357535447,52.58717715767938],[13.143990862708993,52.58974314581358],[13.148901550754154,52.59142469235838],[13.157099322265768,52.597606167700725],[13.164263157351304,52.59890033000301],[13.173824144944533,52.595329208685236],[13.183928521962617,52.59355723426535],[13.192164282302263,52.58996344147469],[13.206626308132545,52.58674246221265],[13.207365078785255,52.58845358291243],[13.217336441680418,52.58745559210007],[13.218897954379658,52.59078583864664],[13.217819501544655,52.593221709853474],[13.208719997892699,52.59863633681052],[13.201606489115244,52.60638132821378],[13.206838388188515,52.60906260212583],[13.216984649430966,52.62011856159037],[13.22068327220891,52.628178720301136],[13.264274727231625,52.62692796976685],[13.265225955638732,52.634419886237694],[13.262156275508842,52.64075298803343],[13.26835725276556,52.63984619588854],[13.282440709191796,52.64129535758671],[13.28344326454857,52.65264627508917],[13.281481523940146,52.65274543313404],[13.282884651988653,52.66078466721069],[13.294594690348191,52.659191726665895],[13.307565414429165,52.65930505813605],[13.310033892401918,52.657376008150564],[13.300377555327527,52.65346984117544],[13.309257421329761,52.643140390554905],[13.30697215467832,52.63972905637672],[13.307860409469066,52.63762074322595],[13.303111836420964,52.63666918792113],[13.307476803771658,52.63268942523053],[13.308309029668177,52.6296915332138],[13.302364590320707,52.628758763906866],[13.302422603147786,52.62756060157978],[13.31312183847373,52.62838271370795],[13.32886253074585,52.62543242350723],[13.336480521481857,52.62267108804684],[13.344187529929048,52.62341670078638],[13.344613421299691,52.62476549448709],[13.357296057030975,52.623174673212915],[13.375992930134075,52.62929259434096],[13.374375347652588,52.6315215994048],[13.383096947259649,52.636325498597635],[13.388682711918785,52.63761389323454],[13.390327027065336,52.642227030153485],[13.396712093145712,52.64830139620139],[13.406997439964197,52.64242099864987],[13.412828153100149,52.64358542569504],[13.424365185070505,52.63563046035631],[13.428359202861781,52.63766650610749],[13.43377878440192,52.63797596759851],[13.434104109478323,52.64428548782661],[13.43989854590251,52.64533252235582],[13.440932072633144,52.649123019977345],[13.454546359868768,52.650041786211595],[13.453964437421057,52.648625136360366],[13.459848419630442,52.64810317669991],[13.469996225082784,52.65207483927397],[13.473545184568719,52.65403940158585],[13.473894060946337,52.656613613417605],[13.46233317064654,52.65746449834785],[13.450840916847456,52.662722174205605],[13.459511426569057,52.668935587849695],[13.465965381402196,52.66714855908392],[13.475393917315593,52.674917149549685],[13.477077429217166,52.67391139560634],[13.479368900214615,52.67537881653976]]]}}]}
