{"type":"FeatureCollection","meta":{"status":"supplementary_bv6_neighbourhood_cases_only","scope":"DUESSELDORF_STADTBEZIRK_06_ONLY_NOT_CITYWIDE","year":2025,"available_years":[2022,2023,2024,2025],"districts":4,"municipality":"Düsseldorf","parent_stadtbezirk":"06","police_source":"https://ris-oparl.itk-rheinland.de/Oparl/bodies/0015/downloadfiles/00589618.pdf","source_pages":[4,5,6,7,8,9,10,11],"municipal_geometry_source":"https://opendata.duesseldorf.de/sites/default/files/Stadtteile_2025_WGS84_EPSG4326_1.geojson","geometry_licence":"Datenlizenz Deutschland - Zero - Version 2.0","area_km2":19.678,"polygons_overlap_m2":0.0,"difference_parent_stadtbezirk_m2":405.3,"mapped_categories":{"all_offenses":{"2022":4475,"2023":4214,"2024":4432,"2025":5097},"street_crime":{"2022":974,"2023":1004,"2024":954,"2025":1366},"street_robbery":{"2022":14,"2023":13,"2024":15,"2025":10},"street_injury":{"2022":28,"2023":21,"2024":38,"2025":45},"vehicle_related_theft":{"2022":164,"2023":243,"2024":157,"2025":504},"bicycle_theft":{"2022":175,"2023":109,"2024":170,"2025":126},"pickpocketing":{"2022":136,"2023":119,"2024":106,"2025":104},"residential_burglary":{"2022":98,"2023":114,"2024":164,"2025":185}},"police_full_city_reference":{"all_offenses":{"2022":65763,"2023":67695,"2024":68915,"2025":69522},"street_crime":{"2022":15974,"2023":17826,"2024":17259,"2025":18237},"street_robbery":{"2022":214,"2023":412,"2024":276,"2025":328},"street_injury":{"2022":709,"2023":883,"2024":950,"2025":1052},"vehicle_related_theft":{"2022":1850,"2023":4111,"2024":4110,"2025":4714},"bicycle_theft":{"2022":2630,"2023":2883,"2024":3570,"2025":3079},"pickpocketing":{"2022":2521,"2023":4603,"2024":4646,"2025":4227},"residential_burglary":{"2022":881,"2023":1368,"2024":1595,"2025":1682}},"all_offense_parent_2025":5097,"metric_labels":{"all_offenses":"全部登记犯罪","street_crime":"街头犯罪","street_robbery":"道路／广场抢劫","street_injury":"道路／广场伤害","vehicle_related_theft":"机动车相关盗窃","bicycle_theft":"自行车盗窃","pickpocketing":"扒窃","residential_burglary":"住宅入室盗窃"},"limitations":"Only four Stadtteile of Stadtbezirk 6 have eight category tables. Elsewhere only 10-Stadtbezirk total crime data exist. NO 2025 neighbourhood population rates."},"features":[{"type":"Feature","id":"duesseldorf-stadtteil-061","properties":{"name":"Lichtenbroich","stadtteil_code":"061","parent_stadtbezirk":"06","year":2025,"metric_scope":"police_published_BV6_local_cases_only","metrics":{"all_offenses":{"2022":503,"2023":423,"2024":421,"2025":528,"rate":null},"street_crime":{"2022":74,"2023":119,"2024":114,"2025":157,"rate":null},"street_robbery":{"2022":1,"2023":0,"2024":2,"2025":0,"rate":null},"street_injury":{"2022":3,"2023":3,"2024":4,"2025":2,"rate":null},"vehicle_related_theft":{"2022":10,"2023":34,"2024":24,"2025":59,"rate":null},"bicycle_theft":{"2022":9,"2023":5,"2024":13,"2025":6,"rate":null},"pickpocketing":{"2022":9,"2023":11,"2024":10,"2025":4,"rate":null},"residential_burglary":{"2022":5,"2023":2,"2024":16,"2025":27,"rate":null}}},"geometry":{"type":"MultiPolygon","coordinates":[[[[6.803869331107117,51.287067469476824],[6.803871750436202,51.28700775312826],[6.803889749551502,51.28648628851935],[6.803939740978224,51.28531236171795],[6.803945447302719,51.28517473344648],[6.803962321624247,51.28476697031585],[6.803968118800347,51.28461841664323],[6.803988924671619,51.284101186488684],[6.803890870818927,51.28383885008218],[6.803868102694488,51.28382911459161],[6.803835634551327,51.283815284910816],[6.803849014836507,51.28367011117269],[6.803880665840808,51.28364696225376],[6.803904309472757,51.28362932897872],[6.80395245637595,51.2835940785444],[6.804014088229285,51.28344751680473],[6.804018894617422,51.28308525906349],[6.804022732305215,51.2826621421271],[6.80399277711854,51.282261999029885],[6.803946853255308,51.28198917398964],[6.803917611517923,51.28181756898336],[6.803816297562321,51.28138020271685],[6.803669625703752,51.28091972621945],[6.803486016985651,51.28046705512032],[6.803437247292769,51.28037116844434],[6.803430198749759,51.28035660158697],[6.803375548022218,51.28024873308382],[6.803366876727792,51.280232112227246],[6.80325638956712,51.280014194429114],[6.803054951686978,51.27968286995855],[6.803237678356206,51.27958593244812],[6.803248276775919,51.279580195671656],[6.803082876256332,51.27933210798321],[6.802982088551182,51.279190456974995],[6.802799862959899,51.278952440498564],[6.802693148545196,51.278817827788124],[6.802592167643642,51.27869829680816],[6.802449021756443,51.27853386087115],[6.802273261197516,51.27834075256046],[6.802159799010358,51.278221391509476],[6.801918051024544,51.27798684243171],[6.801707898492093,51.277793357084605],[6.801369461138045,51.27750275976916],[6.801057675103002,51.277248681189924],[6.800685360486547,51.27697403830573],[6.800394497553276,51.27676837642061],[6.800190337884237,51.27662977133768],[6.799925123803503,51.27646357722212],[6.799704409890175,51.27632938165385],[6.799482618684212,51.27619975209198],[6.799236116249464,51.276056167140744],[6.798943755863238,51.27589107908316],[6.798586546704896,51.27569684559579],[6.797699341019349,51.27521581825086],[6.797095579967515,51.275266105512166],[6.796780383507644,51.275299833419595],[6.796444521485701,51.275324942304444],[6.79570979478255,51.275370328160264],[6.794642418045309,51.27543655676125],[6.794249842632786,51.27550510853192],[6.793998640139771,51.275558786573995],[6.793762508346034,51.275621112164174],[6.793585283256238,51.275674969788085],[6.79391988347028,51.275775035078915],[6.794162223628859,51.27630140695413],[6.794267343032853,51.276351953225664],[6.794250205089129,51.276386435129474],[6.794246906798978,51.276410385655325],[6.794250869517938,51.27643541735285],[6.794432148555298,51.27688064037846],[6.794536960061573,51.2772249987518],[6.79463317923044,51.27754221454338],[6.794672718373047,51.27771361156287],[6.794698095193889,51.27777654971471],[6.79471898495814,51.277933160697785],[6.794738954295799,51.278162871599115],[6.794730946750176,51.27823125128903],[6.794739365357787,51.27836982010179],[6.794754006535752,51.278737705854134],[6.794754922983813,51.27897002556859],[6.794723228341907,51.27938020704413],[6.794674041948853,51.279760380296835],[6.794633904634123,51.2799606289585],[6.794609862399999,51.280058385059526],[6.794596558084465,51.2801385363481],[6.794572298137661,51.28050123718451],[6.794543208108784,51.28075821819379],[6.794506002756652,51.28123844505942],[6.794478399734996,51.281374581275976],[6.794442435386546,51.28149666494096],[6.794271938656955,51.28144556133409],[6.794128272841617,51.28140912796375],[6.793872478025111,51.28136046313037],[6.793727478116323,51.28132494843427],[6.793494739562449,51.281279955070985],[6.793266519667417,51.28124840180715],[6.793085616122942,51.281225969404744],[6.792901888264089,51.28120860976141],[6.792529895629573,51.281178795432396],[6.791281779063456,51.28107282176216],[6.789305278157652,51.280914091514326],[6.788456819167504,51.28085327400492],[6.787957406265112,51.28082521921686],[6.787711009047166,51.28081395163147],[6.787274842804766,51.28080368249295],[6.785343804527713,51.28070199914352],[6.784831447515312,51.28066586167344],[6.784504079890974,51.28062971652978],[6.784222616853563,51.280587289721346],[6.783861008302294,51.28051177736482],[6.783254297365528,51.280389262140474],[6.782723700079226,51.28032106772657],[6.7821091150456,51.280246018071935],[6.781980763212926,51.28023130946013],[6.781822162472073,51.280219399967265],[6.781605277816346,51.280211781609744],[6.781401809343157,51.28021143213211],[6.781196992990133,51.28021227087296],[6.780843562251102,51.280226075017055],[6.780453859330999,51.28025160126984],[6.777533536822257,51.28044993343263],[6.777339263054358,51.28045514762125],[6.777201470072739,51.280457791847226],[6.776838209779021,51.2804790866888],[6.776306791957307,51.28135422435709],[6.776270896202283,51.281411550617136],[6.776303288949018,51.281417832020864],[6.774806331427364,51.28386134266006],[6.777950088273972,51.28537586492449],[6.780159904207711,51.28643631531127],[6.780431989329522,51.28656680024985],[6.780493627690992,51.28654665451153],[6.780579874220821,51.28654262411574],[6.780682620919212,51.28656224472404],[6.78235555322824,51.287364249945824],[6.78278430081802,51.287538708035896],[6.78293714802833,51.287625917694335],[6.783229460826514,51.28768514580488],[6.783523097256312,51.28778837654021],[6.783751646213981,51.287885112865666],[6.783894102896643,51.28798264691035],[6.783998156270558,51.28807351795273],[6.784124301065504,51.288188145316],[6.784871076622759,51.2885495207611],[6.786647268842004,51.289399419423056],[6.786819864628462,51.289398366311204],[6.786727482125944,51.28998614394434],[6.786751767506974,51.290447430565074],[6.786531005396342,51.29200434890452],[6.790706500925282,51.29210806029223],[6.790994080359791,51.29211429757058],[6.79118418902531,51.29215201568596],[6.791214814816271,51.29212358959629],[6.791218222491898,51.29210638638239],[6.791215690813034,51.292033626155515],[6.791226935395093,51.291978663228],[6.791236579638098,51.29193014541956],[6.791258878554471,51.291895896276216],[6.791272337960891,51.29182168408045],[6.791288408574239,51.291764788679195],[6.791301575552482,51.29173252564219],[6.791306502887266,51.291701591045644],[6.791321628876803,51.29166437358077],[6.791360656754221,51.291595365444785],[6.791374771660878,51.29153438605137],[6.79138820136188,51.29146975135837],[6.79140542263908,51.29140680703948],[6.79142196516876,51.29134007263969],[6.791430176987978,51.29129449563923],[6.791456099930206,51.2912295570674],[6.791464560477816,51.29118776202802],[6.791524500701488,51.29114923169595],[6.791544655909753,51.291114807146684],[6.791559276949885,51.29108810251933],[6.79157660383207,51.29104984732803],[6.791572748533365,51.2910136207098],[6.791569432626199,51.29099305296108],[6.791581044225891,51.29096629154775],[6.791589669309095,51.29093003060668],[6.791597706229109,51.290888092661426],[6.791737262740318,51.29088519474101],[6.791819207672012,51.29089024822514],[6.79186219845105,51.29090900132488],[6.791898853949931,51.290916303079],[6.791953093980517,51.29091584240515],[6.791992697606879,51.29091551030297],[6.792059909214053,51.290922713922214],[6.792150397658532,51.290920103993685],[6.792202549446655,51.29092729325591],[6.792320878516982,51.29094530882131],[6.792400056641756,51.29095422188269],[6.792497498026466,51.29095916246384],[6.792582210165853,51.290960355429974],[6.792615849973671,51.290967734985834],[6.79266176649713,51.290988296698956],[6.79273482901257,51.29099911773586],[6.7927865510763,51.29100629863249],[6.792832422461173,51.29100986171208],[6.792871777270861,51.29100574734983],[6.792910731235883,51.29099204733861],[6.792944151283889,51.29098606730864],[6.792961599856716,51.29096319309863],[6.792970201256789,51.29093637479112],[6.793012339055616,51.29091909241463],[6.793047989271367,51.29088455507873],[6.793083322592475,51.29083867994746],[6.793101236447778,51.29080610151047],[6.793119024287763,51.290785122309245],[6.793170878345321,51.29074468494581],[6.793198828554374,51.29069125093664],[6.793214721991846,51.29065593633873],[6.79323712553134,51.29062843392329],[6.793251865092442,51.29060820664451],[6.793271685633207,51.29055380992602],[6.793316641366564,51.29051364714663],[6.793346372603064,51.29048587815529],[6.793357847310754,51.29046194694296],[6.793351126816387,51.290431602081306],[6.793356621581534,51.29040674871297],[6.793426647188246,51.290346283550406],[6.793448989173317,51.29032903252432],[6.79348555373736,51.290320278671835],[6.793546135183471,51.29033113371959],[6.793626030478062,51.29036096936355],[6.793754179269796,51.290407498118796],[6.793882357192371,51.29044444920416],[6.793931283139401,51.29046506714366],[6.794019812393098,51.29048535227035],[6.794074889373488,51.29049434956416],[6.794122360726084,51.29050940900626],[6.79417535631663,51.29052592156417],[6.79422770588012,51.29055591217069],[6.794301457595663,51.290597233179646],[6.794362819579471,51.29063670183376],[6.794396369011067,51.29064596780908],[6.794421291496272,51.290664649284395],[6.794452210455017,51.29069288692312],[6.794476718904497,51.2907022523138],[6.794513125645262,51.2907057712906],[6.794552797263986,51.29071299414231],[6.794622039425889,51.29073170125982],[6.7946994535511,51.290759465871645],[6.794779010868904,51.29078740571366],[6.794837143747007,51.29081345793054],[6.794886138740753,51.29084163130255],[6.79494442957204,51.2908554103173],[6.794981073470845,51.29088092271557],[6.79502112441914,51.29090717379914],[6.795085304989416,51.29092376174733],[6.795131443076793,51.29095768200054],[6.795196133012972,51.29100854470459],[6.795236314289452,51.29105004214401],[6.795273508362732,51.291082040128856],[6.795326108381268,51.29111581221844],[6.795389859440561,51.29113239190597],[6.795459686447558,51.291129929852566],[6.795499442530326,51.29113540023845],[6.795581705857301,51.291151788882416],[6.795654678981261,51.29116449503933],[6.795703136728214,51.29116797079788],[6.795852081100446,51.291166728691564],[6.795891656499648,51.29117597280911],[6.795955588615824,51.291188778327715],[6.796019741499201,51.291214943308674],[6.796090265732612,51.29124284705327],[6.796136047275153,51.29124829577611],[6.79617538008621,51.291253623058616],[6.796294543131275,51.29128122836187],[6.796382894314619,51.29130528559507],[6.796437626757757,51.291312521547454],[6.796468196032329,51.29131215274341],[6.79650739197175,51.291302368266045],[6.796541945219149,51.29128170418021],[6.796582167292475,51.2912504895115],[6.796605425009669,51.291214098985606],[6.79660506710812,51.29118562783792],[6.796595328513746,51.291155361266924],[6.79657009362593,51.29112520767711],[6.796533154260155,51.29109685727152],[6.79652993939106,51.29107413314202],[6.796541367430676,51.29105114506798],[6.796562260024874,51.2910282002669],[6.796606855952062,51.29100448756377],[6.796664407329603,51.290979804605946],[6.79669757124526,51.29097017631989],[6.796742259857988,51.29093553821451],[6.796829312197956,51.29089684104044],[6.796886611658131,51.29087741442701],[6.796933427817719,51.29085225946548],[6.796961731880442,51.290827295657564],[6.796985390762328,51.290800490679814],[6.797017176819705,51.290783686541964],[6.797084402748411,51.29076363725158],[6.797147665014364,51.290736498398594],[6.797189807557096,51.290719079715295],[6.797261496714461,51.29065972281814],[6.797309222131857,51.29061556357969],[6.797371826574905,51.29057519179072],[6.797451717618998,51.29053325663699],[6.797497851619091,51.2905133498099],[6.797552708184456,51.29050898597471],[6.797594912581912,51.29049925774873],[6.797626711111681,51.29048218387725],[6.797673330672819,51.290470110458095],[6.797702674529249,51.29044138877122],[6.797768032326394,51.2903704457328],[6.79781575050532,51.29032642105731],[6.797903559648172,51.29028085731041],[6.798044320352887,51.290225767303724],[6.798161523964361,51.290177383801705],[6.79884039682295,51.289856269402165],[6.79901359529952,51.289779664279195],[6.799296890853229,51.28968624271207],[6.799507399168897,51.28961222700907],[6.803706352181927,51.28714670171168],[6.803792686164334,51.28710474828429],[6.803869331107117,51.287067469476824]]]]}},{"type":"Feature","id":"duesseldorf-stadtteil-062","properties":{"name":"Unterrath","stadtteil_code":"062","parent_stadtbezirk":"06","year":2025,"metric_scope":"police_published_BV6_local_cases_only","metrics":{"all_offenses":{"2022":1263,"2023":1333,"2024":1376,"2025":1609,"rate":null},"street_crime":{"2022":303,"2023":342,"2024":292,"2025":569,"rate":null},"street_robbery":{"2022":1,"2023":1,"2024":3,"2025":3,"rate":null},"street_injury":{"2022":8,"2023":3,"2024":8,"2025":15,"rate":null},"vehicle_related_theft":{"2022":51,"2023":89,"2024":51,"2025":275,"rate":null},"bicycle_theft":{"2022":57,"2023":35,"2024":53,"2025":44,"rate":null},"pickpocketing":{"2022":53,"2023":43,"2024":40,"2025":31,"rate":null},"residential_burglary":{"2022":30,"2023":35,"2024":64,"2025":43,"rate":null}}},"geometry":{"type":"MultiPolygon","coordinates":[[[[6.797699341019349,51.27521581825086],[6.796689524712965,51.27468161736335],[6.796435401829753,51.27455380141836],[6.796274777413525,51.27446767678955],[6.79599205769686,51.27430829372811],[6.795762835006452,51.27417258125887],[6.795581208086892,51.27405800029431],[6.79548779515349,51.27399661365273],[6.795415744951528,51.27394723100597],[6.795287717494694,51.27385416448715],[6.795109287354648,51.27371778874],[6.794971382282108,51.2736064587875],[6.794838783337482,51.27349212588498],[6.794746424733263,51.27340876934118],[6.794635780027268,51.27330307896798],[6.79451408418799,51.2731766749904],[6.794402822761375,51.273056942870085],[6.794341327148577,51.27298482497665],[6.794262527794934,51.27288782859527],[6.794190527181383,51.27279257913819],[6.794108842230453,51.27267502302605],[6.794048484013983,51.27257918350818],[6.793980697098911,51.27246782499832],[6.793921165951839,51.27235473343502],[6.793850609799281,51.27222038915495],[6.793784654925468,51.272079791137216],[6.793746227564437,51.27198409508255],[6.793668609589789,51.27175478083487],[6.793607787664535,51.27153401226797],[6.793579541442125,51.27141436048476],[6.793560323159396,51.27130378249631],[6.793546380917088,51.2711818372346],[6.793533991161373,51.271000563974205],[6.793533701842398,51.270827073417],[6.793546911258416,51.27064115649619],[6.793569060739279,51.270457161865906],[6.793593621528135,51.27031260433456],[6.79362561595986,51.27014754680653],[6.794522024717678,51.26654486414024],[6.794545962384894,51.26644912948339],[6.795410997469385,51.26295066734285],[6.795292884492558,51.262938594158214],[6.795087325282877,51.262911652694044],[6.794836484073137,51.262869422933804],[6.79451616976597,51.26277826250568],[6.794468154959731,51.26276616059468],[6.794421018839797,51.262753670516304],[6.794377730231237,51.26274165764774],[6.794335320306451,51.26272925661608],[6.79425012896478,51.26270323337639],[6.794194645252937,51.26268545954163],[6.794139168039004,51.262667550899664],[6.794029554326296,51.262630679586],[6.793965248279152,51.26260855733233],[6.793901404218384,51.26258576923729],[6.793838432427873,51.26256272774586],[6.793775935537249,51.262538750852364],[6.793716016596324,51.262514822530136],[6.793656989291725,51.26249023647306],[6.793598417521607,51.2624651193627],[6.79354072447756,51.26243961408235],[6.793488526511402,51.26241610103189],[6.793437200804099,51.262392334599454],[6.793386330622456,51.2623680371217],[6.793340949036729,51.26234586666814],[6.793336332699529,51.26234348626388],[6.793286803216961,51.26231813479971],[6.793237722805334,51.26229238707368],[6.793189521110056,51.2622662511889],[6.793141774943487,51.262239584262424],[6.79309657441114,51.262213639840816],[6.793052246133129,51.26218744204585],[6.793008379837844,51.262160578431455],[6.792965834813367,51.26213306520491],[6.792934996957833,51.262112517924514],[6.792905037789968,51.262091582499636],[6.792845998195621,51.26204932349151],[6.792391552100997,51.26167044202036],[6.792385837605281,51.261673032274174],[6.79235845663497,51.26163420323351],[6.792353239521426,51.26162641533174],[6.79228447739484,51.26155375431244],[6.792259177005524,51.26152535203816],[6.792233889566618,51.26149668019624],[6.792200981683103,51.2614565327117],[6.79216938214592,51.261416005193354],[6.792137039671888,51.26137303539251],[6.792121727729174,51.26135156670167],[6.792106864816695,51.26132970177173],[6.792099641723373,51.26131890814053],[6.792094854323672,51.261311128334256],[6.792090574083061,51.26130173925984],[6.792080211083027,51.26128468084014],[6.792070975490783,51.261271016269326],[6.79206859794609,51.26126678941265],[6.792057805326589,51.26124972288451],[6.792050705001882,51.261236368407566],[6.792047487571812,51.26123172099362],[6.792037208586654,51.26121291041466],[6.79202689084773,51.26119490852207],[6.792016566656381,51.261177041409816],[6.792011453016352,51.26116709699435],[6.792007537835777,51.26115906383582],[6.791998809448152,51.26114378999197],[6.791998547784402,51.26114027757396],[6.791988171932336,51.26112348870891],[6.791979143132732,51.26110551113285],[6.791977996361522,51.26110252162583],[6.791970069116709,51.261088477024494],[6.791968140605167,51.26108385392919],[6.791960995107278,51.26107144291549],[6.791951927564845,51.26105427402459],[6.791944442890036,51.26103996796619],[6.791944533337471,51.26103808102942],[6.791935375359699,51.261022799074105],[6.791931844612868,51.26101571748856],[6.791927935918884,51.26100754954629],[6.79192364281762,51.260998430028465],[6.791921740156601,51.260993267807656],[6.791915890042734,51.26098074633133],[6.791905840518637,51.260984064178885],[6.791890102408703,51.26095354890493],[6.791864169445347,51.260920412993315],[6.791864169445347,51.260920412993315],[6.791801849867821,51.26107221711424],[6.791785045639827,51.26109982494719],[6.791747709046112,51.26123280934353],[6.791665256179018,51.26155340193903],[6.791649036293562,51.26159572521778],[6.791627486136105,51.261659532396294],[6.791594955461668,51.261781950092434],[6.791586843997848,51.26178071778415],[6.791581888499283,51.26179438437721],[6.791585212471723,51.26180577896922],[6.791552801188635,51.26191673214259],[6.791517391694986,51.26205433953332],[6.791472836496587,51.26221227957137],[6.79142344481416,51.26239036377127],[6.791399803657425,51.262470859422706],[6.791389856514439,51.26252584704237],[6.791384878141593,51.26254895641086],[6.791365627355892,51.26260066565856],[6.791335070204084,51.26263705235541],[6.79131723727379,51.26270403240505],[6.790642772547025,51.26272543062715],[6.790310853542763,51.2627508656016],[6.78879497768451,51.262903001234854],[6.788704583057072,51.26290480056272],[6.788635802900398,51.262913213828554],[6.788591414374226,51.262942053672944],[6.78857693173781,51.26299290826707],[6.788580674136635,51.26314784778588],[6.788530169247035,51.263187634077056],[6.788450750873715,51.26319368774022],[6.788392847695838,51.26315468562517],[6.788324913787515,51.26311859667],[6.788253618992282,51.263098767430506],[6.788172794273414,51.263080376854944],[6.788071823816671,51.263069564707266],[6.787953898833084,51.26307151757984],[6.787824017252865,51.26308066397346],[6.787030269849847,51.26314106673152],[6.786679171556809,51.263153852534835],[6.786170384621219,51.26316378903821],[6.786001512281238,51.26316099878856],[6.785163183639712,51.26313784974913],[6.783519307648144,51.263098495001294],[6.782871297165649,51.26307933895208],[6.781496809442947,51.263045194409784],[6.781295487156545,51.263046503762205],[6.781119838772207,51.26304155443226],[6.780132629315775,51.263011364140134],[6.779659990626567,51.26300293668854],[6.779342558927696,51.262995294351654],[6.779180561527241,51.2629837210919],[6.779013850365109,51.26296288471463],[6.778578770596853,51.262906870354236],[6.777497883999439,51.262741594902366],[6.777220937646758,51.26270598130254],[6.77712358400494,51.26270048961174],[6.777008556436743,51.26269587621811],[6.776056088022201,51.26268560259963],[6.775800359207095,51.26270934165001],[6.775458961819957,51.262752766321775],[6.775333037039886,51.26276898904975],[6.775199417643394,51.26277535230374],[6.774925838320905,51.262776895710694],[6.774384785871411,51.262778208094076],[6.774181583738887,51.26277393839855],[6.774039202449393,51.262765833902364],[6.773945839695786,51.262757852315794],[6.773791904004818,51.262739679764195],[6.773473240148411,51.262695304299605],[6.773286828306491,51.26266396712095],[6.772869583758347,51.26258614666837],[6.772748302361506,51.262559690596795],[6.772595456268611,51.26251900832349],[6.772445559815301,51.26247069250084],[6.772280211383169,51.26239510162298],[6.772166186127478,51.262316440534086],[6.77194398093881,51.26218054405967],[6.771814664562338,51.262115756331916],[6.771713025815644,51.262074429104764],[6.771597280974251,51.26203134922107],[6.771257414473434,51.261927611064145],[6.771031595032705,51.26185761179157],[6.77056086610795,51.261712256782495],[6.770375081042256,51.26165920739234],[6.770158772965722,51.26160598077621],[6.7699905233819,51.261572691028746],[6.769738868965814,51.26152121828165],[6.769560420909633,51.26147653653921],[6.769444606728689,51.261443840748214],[6.76934922567876,51.26141544655871],[6.769229949815933,51.261374320543396],[6.769112868006174,51.261332291909184],[6.768322129393915,51.26105550100255],[6.768040467876825,51.260940047593614],[6.76796222804311,51.26091292353448],[6.767816064746219,51.26086764078563],[6.767672713164989,51.26082645859929],[6.767575460733473,51.26079236129265],[6.766712120236161,51.26048786801664],[6.766506146179943,51.26039908233899],[6.766431735555628,51.2603728397522],[6.766168549665994,51.26029334898086],[6.764433379794631,51.25964761381426],[6.7635399245059,51.25931769914671],[6.763380869406648,51.25927243418749],[6.7630450452883,51.25921906820801],[6.763026796062264,51.259258381026406],[6.76299015772419,51.25934874060326],[6.762893792899984,51.2595267249546],[6.762660542838798,51.26001749689118],[6.762492519403552,51.26038702305771],[6.762418088794026,51.26058255920271],[6.762412061770993,51.260626962172815],[6.762419017488035,51.26066082110601],[6.762428186788515,51.26069337333002],[6.762444696485424,51.2607341601379],[6.762460283959358,51.26076737470156],[6.762487484349167,51.26080054151355],[6.762533552992593,51.26084364726604],[6.762596527587507,51.26088397346875],[6.762755414136158,51.26096822339385],[6.762816827695701,51.261005281940484],[6.76286651950641,51.2610357758814],[6.762899957638668,51.26106447512297],[6.762924593856931,51.26109732299921],[6.762944264419732,51.26112616373172],[6.762957697705696,51.26115947194449],[6.762979526632541,51.26122356379217],[6.763011486538336,51.26135354739788],[6.763039130178355,51.261510429211754],[6.763034358734095,51.2616086827702],[6.763028945828537,51.261720144623546],[6.762999536586929,51.26183870234308],[6.762846298218743,51.26235528677008],[6.762701017715199,51.26275222869088],[6.762546587664195,51.263222383062164],[6.762487378220851,51.2633966256558],[6.762457894363115,51.26351666574018],[6.762437869160546,51.26363675177742],[6.761998946177171,51.26499655069444],[6.761933233470465,51.26515407547116],[6.761905392028491,51.26521370999487],[6.761862259452665,51.26526940965281],[6.761802295204302,51.265335174939125],[6.761631483360406,51.265531430186016],[6.761447064787782,51.265724457015494],[6.761399403662182,51.26581136751444],[6.761355385075826,51.2659295104128],[6.76114524468555,51.26659852425133],[6.761140662794076,51.26665738946492],[6.761112841095327,51.26675196421107],[6.761026584282225,51.266925014040005],[6.760991652394824,51.26704198161695],[6.760947248649191,51.26717684503238],[6.760928914773181,51.26726202311483],[6.760902078956084,51.26740707061626],[6.760329458068737,51.26923255513352],[6.759971271459698,51.27034485931206],[6.75996001841509,51.270390511118],[6.759952003345141,51.270449175644686],[6.759951776067074,51.27052458238024],[6.759957636335184,51.2705809493373],[6.759977473908279,51.27064176585221],[6.759997366977683,51.2706926005626],[6.760034324669518,51.27076399743749],[6.760041063579934,51.270802304130676],[6.760033835262821,51.270844795293186],[6.760015870597681,51.27088694604519],[6.759966749989396,51.27093295223974],[6.759899298738463,51.270966736014586],[6.759767593640308,51.271012780090715],[6.759537785493709,51.27108608501682],[6.759424403280561,51.27112681355654],[6.759352847795947,51.27116537496703],[6.759304611898382,51.27121085821333],[6.759278858729556,51.27123626658986],[6.759270074715799,51.27127535533132],[6.759273375295744,51.27131359623409],[6.759301313063738,51.27148195118316],[6.760333571996247,51.27141186579172],[6.760360104815113,51.27170646326672],[6.759821852445061,51.27231995477204],[6.759701030713551,51.2726284595669],[6.759747146702068,51.27276802319824],[6.759792486599558,51.272950066555126],[6.760086918099427,51.272980929389156],[6.760495906582561,51.273035433444164],[6.76100457531585,51.27303032724264],[6.761994456793116,51.27281506948786],[6.762429097899913,51.272855083072194],[6.762648605919078,51.27295843395862],[6.76306238313524,51.27351648019553],[6.762968088307825,51.27360695168144],[6.76339447843019,51.27378157241145],[6.763509232602378,51.27381007169018],[6.765000514625076,51.27441311541708],[6.765173267013322,51.27450518094176],[6.765373757717174,51.27460182296805],[6.765955540943859,51.27478344840857],[6.76594272960733,51.27479925734015],[6.766087652064057,51.27484438346125],[6.766078643150629,51.27486161402401],[6.766612809768806,51.27503180473633],[6.766613982225706,51.275096310903436],[6.766789944733519,51.275388361977086],[6.767062471466221,51.27584467884753],[6.767123870399407,51.27590911998493],[6.767195820802256,51.27599548183209],[6.767808821614912,51.27677585458047],[6.767836706087428,51.27676856204682],[6.7678928489961,51.276852733286155],[6.768099848254762,51.276788824846115],[6.768362069878346,51.2771120622151],[6.76812229247093,51.27719544660374],[6.768233240990207,51.27723169296652],[6.768359054936985,51.27731624824842],[6.768403876869027,51.277350019337234],[6.768594004982448,51.27750109388656],[6.768692683997485,51.2775952491591],[6.76886946062681,51.27781770229811],[6.768952152651805,51.27792220990987],[6.769068397155472,51.278097776547135],[6.769189369980863,51.27822905002995],[6.769251057612941,51.27836755735345],[6.769277172014078,51.278450076272186],[6.769297023769136,51.27851979491171],[6.769302008012968,51.27859449138859],[6.769307076861854,51.27862305258055],[6.769334266258948,51.27865675701173],[6.769377848995854,51.27867175254213],[6.769363049902603,51.27874634174884],[6.769345502203788,51.27882438604745],[6.769309120670687,51.27890935613451],[6.769272072570363,51.27896369047839],[6.769224363169803,51.27902497146327],[6.769112918741367,51.27914088744311],[6.769070233205722,51.279178386265436],[6.768989636731395,51.27919924379665],[6.769042902752163,51.279307372346175],[6.769093608533558,51.279423950965324],[6.769249812152437,51.27971602599326],[6.769342005329704,51.27975771458513],[6.769411741291882,51.279730174458805],[6.769482010244066,51.279709389608655],[6.769570253590784,51.27968166250543],[6.769632368067174,51.27966935595953],[6.769686158410314,51.27966903203263],[6.76976750705315,51.27967705763292],[6.769824246092641,51.27968690757235],[6.769930291316943,51.279726836113646],[6.770009286473305,51.279756805915554],[6.770104555434266,51.279788299867285],[6.77020978286135,51.27980959593262],[6.770299504873985,51.27983127101155],[6.770405065417473,51.279845693185074],[6.770529368633871,51.27985507618491],[6.770718572077849,51.27986569531092],[6.771498537363665,51.27998091767439],[6.771566327291743,51.28000244395604],[6.771755829397891,51.28003357236064],[6.772029201671932,51.28007398660792],[6.772073072224503,51.28010085806969],[6.772741062504553,51.28019208610287],[6.773656472929554,51.28032673445563],[6.773296137398788,51.28128362682428],[6.773321071821854,51.281310677131124],[6.773454874762881,51.28131942831021],[6.773563285963473,51.28132837080725],[6.773675559044319,51.28133752157042],[6.773729605183727,51.281340843019585],[6.773829524442725,51.28134746528311],[6.773921713539467,51.281353805525136],[6.774016996115535,51.28135845079222],[6.774065526375465,51.281360183240636],[6.774185002588834,51.2813627253603],[6.774368925383901,51.281367032560546],[6.774536977550067,51.281370363170176],[6.774763524053201,51.28137399631666],[6.774857654143664,51.28137578602133],[6.77496426199083,51.28137754306918],[6.775078137665633,51.28138024760553],[6.775130132603246,51.28138150586588],[6.775237124700916,51.28138421429083],[6.775285681105554,51.2813854071173],[6.775381484928955,51.2813881725373],[6.775428732348449,51.28138974513194],[6.775536115229935,51.28139327012923],[6.775633618825042,51.281396472358935],[6.77571309612026,51.281398792299946],[6.77580246575851,51.281401165284436],[6.775895710285367,51.28140347693526],[6.775997961474613,51.28140636437413],[6.776089499776145,51.281408373640986],[6.776193020915212,51.28141168974998],[6.776222671881735,51.28141238805521],[6.776270896202283,51.281411550617136],[6.776306791957307,51.28135422435709],[6.776838209779021,51.2804790866888],[6.777201470072739,51.280457791847226],[6.777339263054358,51.28045514762125],[6.777533536822257,51.28044993343263],[6.780453859330999,51.28025160126984],[6.780843562251102,51.280226075017055],[6.781196992990133,51.28021227087296],[6.781401809343157,51.28021143213211],[6.781605277816346,51.280211781609744],[6.781822162472073,51.280219399967265],[6.781980763212926,51.28023130946013],[6.7821091150456,51.280246018071935],[6.782723700079226,51.28032106772657],[6.783254297365528,51.280389262140474],[6.783861008302294,51.28051177736482],[6.784222616853563,51.280587289721346],[6.784504079890974,51.28062971652978],[6.784831447515312,51.28066586167344],[6.785343804527713,51.28070199914352],[6.787274842804766,51.28080368249295],[6.787711009047166,51.28081395163147],[6.787957406265112,51.28082521921686],[6.788456819167504,51.28085327400492],[6.789305278157652,51.280914091514326],[6.791281779063456,51.28107282176216],[6.792529895629573,51.281178795432396],[6.792901888264089,51.28120860976141],[6.793085616122942,51.281225969404744],[6.793266519667417,51.28124840180715],[6.793494739562449,51.281279955070985],[6.793727478116323,51.28132494843427],[6.793872478025111,51.28136046313037],[6.794128272841617,51.28140912796375],[6.794271938656955,51.28144556133409],[6.794442435386546,51.28149666494096],[6.794478399734996,51.281374581275976],[6.794506002756652,51.28123844505942],[6.794543208108784,51.28075821819379],[6.794572298137661,51.28050123718451],[6.794596558084465,51.2801385363481],[6.794609862399999,51.280058385059526],[6.794633904634123,51.2799606289585],[6.794674041948853,51.279760380296835],[6.794723228341907,51.27938020704413],[6.794754922983813,51.27897002556859],[6.794754006535752,51.278737705854134],[6.794739365357787,51.27836982010179],[6.794730946750176,51.27823125128903],[6.794738954295799,51.278162871599115],[6.79471898495814,51.277933160697785],[6.794698095193889,51.27777654971471],[6.794672718373047,51.27771361156287],[6.79463317923044,51.27754221454338],[6.794536960061573,51.2772249987518],[6.794432148555298,51.27688064037846],[6.794250869517938,51.27643541735285],[6.794246906798978,51.276410385655325],[6.794250205089129,51.276386435129474],[6.794267343032853,51.276351953225664],[6.794162223628859,51.27630140695413],[6.79391988347028,51.275775035078915],[6.793585283256238,51.275674969788085],[6.793762508346034,51.275621112164174],[6.793998640139771,51.275558786573995],[6.794249842632786,51.27550510853192],[6.794642418045309,51.27543655676125],[6.79570979478255,51.275370328160264],[6.796444521485701,51.275324942304444],[6.796780383507644,51.275299833419595],[6.797095579967515,51.275266105512166],[6.797699341019349,51.27521581825086]]]]}},{"type":"Feature","id":"duesseldorf-stadtteil-063","properties":{"name":"Rath","stadtteil_code":"063","parent_stadtbezirk":"06","year":2025,"metric_scope":"police_published_BV6_local_cases_only","metrics":{"all_offenses":{"2022":1636,"2023":1482,"2024":1623,"2025":1864,"rate":null},"street_crime":{"2022":345,"2023":303,"2024":324,"2025":384,"rate":null},"street_robbery":{"2022":9,"2023":8,"2024":8,"2025":5,"rate":null},"street_injury":{"2022":13,"2023":10,"2024":20,"2025":19,"rate":null},"vehicle_related_theft":{"2022":57,"2023":64,"2024":38,"2025":86,"rate":null},"bicycle_theft":{"2022":45,"2023":29,"2024":54,"2025":43,"rate":null},"pickpocketing":{"2022":58,"2023":56,"2024":43,"2025":51,"rate":null},"residential_burglary":{"2022":33,"2023":34,"2024":39,"2025":44,"rate":null}}},"geometry":{"type":"MultiPolygon","coordinates":[[[[6.867378048187968,51.26845104623771],[6.865739060596922,51.26818036780302],[6.866388278320298,51.265306931580945],[6.866407690451161,51.26519423797878],[6.866075787005948,51.26508997787517],[6.865939841827413,51.26504460014413],[6.865806425102992,51.265000347577775],[6.865423037938013,51.26488421963935],[6.865020336889037,51.2647580251529],[6.864620602147133,51.26463282770195],[6.864362347392582,51.26455418884375],[6.864099698255594,51.26446831941596],[6.863988334863738,51.26443080763951],[6.863893230919074,51.26439507646923],[6.863829461197946,51.26436989992797],[6.863764957203092,51.264342011914394],[6.863679014513688,51.26430347996694],[6.863589834555864,51.26426057200178],[6.863322295684387,51.264131847708484],[6.862838628415538,51.26390649844464],[6.862750714039708,51.26386415254673],[6.862667007188067,51.26383308026827],[6.862594501491984,51.2638108462247],[6.862485379347183,51.26378996683861],[6.862215383957649,51.263732827895076],[6.861768213883257,51.26363859080638],[6.861596455652892,51.263605234342215],[6.861437642176927,51.26358020828984],[6.861358988471189,51.263570002273426],[6.861287457808483,51.26356383853495],[6.861220054949651,51.26356139254134],[6.861138310055062,51.26356219182012],[6.861075800449608,51.263565501051],[6.860998917484012,51.2635727294788],[6.86093275762787,51.263580558570574],[6.860862163275551,51.263591274401755],[6.860742856685957,51.263613780468205],[6.860655590216501,51.26363161099077],[6.860460200932383,51.26367188188839],[6.860267862886685,51.26371126394063],[6.86015678846518,51.263732436016554],[6.860063587472237,51.26374840386037],[6.859986428526967,51.263761562255],[6.859743020653218,51.26379866049821],[6.859609229214358,51.263818202462026],[6.859358312050362,51.26385030609738],[6.859255908202972,51.26386070888703],[6.859137637526317,51.26387014680541],[6.859035016920596,51.26387595877722],[6.858941893078763,51.2638810001008],[6.858844174329198,51.263883124341014],[6.858757335386146,51.263882479736466],[6.858684776096618,51.26387993793322],[6.85859088328046,51.26387376806074],[6.858470077417802,51.263863733059935],[6.858411051277447,51.26385685208407],[6.858350444315731,51.26384697430865],[6.858267446742737,51.263828457706424],[6.858220733691629,51.26381573140618],[6.858184812749014,51.263802123396715],[6.858155380863969,51.26378768983189],[6.858123179424441,51.26376807930085],[6.858092386129939,51.26374593140088],[6.858065939776425,51.26372278384308],[6.858042494918488,51.26369982611963],[6.858023334312916,51.263677216613644],[6.858009267162192,51.263656049353244],[6.857994952118545,51.26363096540203],[6.857977992902769,51.26359800874603],[6.857966475326903,51.26356825443456],[6.857955311595248,51.26352164387647],[6.857948152853155,51.26347213878768],[6.857944659988366,51.26340853611379],[6.857943473450576,51.263378566199314],[6.857949726111117,51.263253356896676],[6.857952919331411,51.263175442116285],[6.857956798558676,51.26307352737408],[6.857957025113979,51.26300392219879],[6.857953199418487,51.26292898167795],[6.857941868156943,51.26283973908048],[6.857927886532176,51.26274275856356],[6.857912945961371,51.26266640046441],[6.857897811745469,51.26261270231938],[6.857880865488752,51.262579476075054],[6.857851163743934,51.262533875169865],[6.857778164438167,51.262429878579646],[6.857728032768836,51.2623612401406],[6.857631825926564,51.26225695349901],[6.857583059366572,51.262205202711606],[6.85753162717654,51.262155291724774],[6.857460521338705,51.262093823660294],[6.857118490272486,51.26180143413983],[6.85704666415576,51.26173698478334],[6.856979658528471,51.26167060013189],[6.856933850744613,51.261619982459735],[6.85690793917671,51.261585377758806],[6.856885894554233,51.26155084387099],[6.856865988730176,51.2615073107258],[6.856848754937928,51.26146180298558],[6.856839295833582,51.26142480154557],[6.856831486383538,51.261389314237356],[6.856828901778062,51.26135243869869],[6.856827599867373,51.26131572155353],[6.85682746777344,51.26128158896784],[6.856831105260276,51.2612403756223],[6.856840039563995,51.261186983216874],[6.856851037559783,51.261144690557074],[6.856871945640426,51.26109273155682],[6.856891749815854,51.261046013507865],[6.856951441254412,51.26090910209272],[6.857040498064377,51.26071404610713],[6.85706474258717,51.260664306600965],[6.857215916794029,51.260391065707104],[6.857300176785214,51.26021588716097],[6.85730661769814,51.26018835021752],[6.857308737091095,51.260161273751606],[6.857306933269079,51.260135339565934],[6.857303310569629,51.26011153050506],[6.857295212570492,51.260082243423774],[6.857286129911661,51.260055636349044],[6.85727299867419,51.26003286729432],[6.857259400191576,51.26001089909337],[6.857242869460372,51.259987258375496],[6.85722043661174,51.259961081345864],[6.857146144840849,51.259884985305185],[6.856938271254887,51.25969474414989],[6.856835191355417,51.25960894735077],[6.856710272355698,51.25951195830829],[6.856519572228291,51.25936857207186],[6.856269781279253,51.25917364969898],[6.856126804396454,51.25906742567101],[6.856048062630398,51.25901310148222],[6.855951091519028,51.25895318206103],[6.855857002616273,51.258896013406726],[6.855770010648484,51.258843426481825],[6.855724968633762,51.258822635643],[6.85569119417945,51.25880920106223],[6.85565417393184,51.25880083326545],[6.855612233276101,51.25879655724848],[6.855561405146268,51.258798458737466],[6.855512599682025,51.258803095310434],[6.855461677428044,51.25880701856001],[6.855449736894711,51.258730984851034],[6.855449416965776,51.25836836261398],[6.855438080893425,51.25834400741487],[6.855344329013386,51.258307349600884],[6.854893241326751,51.25817861391826],[6.854377945749838,51.2580252262411],[6.852740812442415,51.25756742214916],[6.851813726320993,51.25731001102152],[6.851510670560395,51.257225259643064],[6.850938946126898,51.25706528958136],[6.850218723414372,51.25686265761442],[6.850172688293265,51.256844814202246],[6.850145587513579,51.25682664413096],[6.850126687086449,51.2568078153021],[6.850119033937296,51.2567967476274],[6.850111544317872,51.25678217550301],[6.850106510936681,51.256761038304724],[6.850106804616409,51.25674552996322],[6.850109776584119,51.256727912395924],[6.850130544924292,51.25670670963358],[6.850175402801714,51.25668527493518],[6.850489349906525,51.2565640995448],[6.850856910368314,51.25642731505909],[6.85092998127818,51.25640019274578],[6.850980947283306,51.256376846390786],[6.851029758919132,51.256353595351264],[6.851070363984927,51.25633113789674],[6.851105289838259,51.256310599665035],[6.851154641963761,51.256275756923195],[6.85118775287923,51.25624803552933],[6.851239294747991,51.25620311530976],[6.85127504388531,51.25616491997732],[6.851304721931118,51.256127827272195],[6.851329439539953,51.256086461511025],[6.851353777785289,51.25604400956233],[6.851371097766624,51.256004531486866],[6.85138746204326,51.25595788605146],[6.851398484403222,51.25589670800697],[6.851403775438517,51.25585700905321],[6.851406363146268,51.25581995850252],[6.851404943969539,51.25577662888376],[6.851399949709433,51.25573620146521],[6.851388915911889,51.25569620275736],[6.851377588898507,51.255671712401],[6.851338232740388,51.255602864197066],[6.851307341015311,51.25555535103159],[6.85126902674903,51.25551026469719],[6.851223359102826,51.2554661225338],[6.851177433815659,51.25542750660527],[6.851113237080543,51.255384238251466],[6.851024626767904,51.255329729341916],[6.850938768183192,51.25528997522735],[6.850871524857827,51.25526594178133],[6.850806708288323,51.255245190518046],[6.850749815180011,51.25522971103106],[6.850682662117059,51.255212963845345],[6.850615768933181,51.25519986375058],[6.850562409051601,51.255191598882256],[6.850501190716782,51.255185887675346],[6.850445443948879,51.255182705186726],[6.850392647760842,51.25518079099381],[6.850331146483289,51.2551811450939],[6.850258268206296,51.25518574191741],[6.850204721699456,51.25519069386175],[6.850151971482338,51.25519700943243],[6.850084350866132,51.25520871765303],[6.850020546260317,51.25522157516558],[6.849937436880673,51.25524271166667],[6.849878984210334,51.255260658818216],[6.849805560413304,51.25528615516199],[6.849613187158447,51.255363696217884],[6.848943434868193,51.255664763794464],[6.848804124274355,51.255729249142576],[6.84840428060055,51.2559036108926],[6.848234556489766,51.25597482105566],[6.848068847843917,51.25603369382571],[6.847829511114866,51.25612237458958],[6.84754894408828,51.256210026655204],[6.847449261286688,51.25623611772356],[6.84733568619288,51.2562650558884],[6.847224693530276,51.256284733207],[6.847095139599438,51.25630595755255],[6.846966393071766,51.2563191024833],[6.846832249303828,51.25631892755052],[6.846763986244603,51.256316727124116],[6.846696303982053,51.25631129969431],[6.846568101743735,51.256285197680825],[6.845433227913585,51.25598546429637],[6.845197926813285,51.25592339338555],[6.842905512486789,51.25532239156928],[6.842508044795564,51.25521604553896],[6.839918504454095,51.25453450017909],[6.83828164270979,51.25410401676594],[6.836594318937562,51.25365922190941],[6.836399099483285,51.25360475418981],[6.836235579691471,51.253561934325035],[6.836286736958547,51.25370857488448],[6.836600517365496,51.254497889672486],[6.836610033355111,51.25455162184806],[6.836611141172269,51.254601286400124],[6.836597226877851,51.254641230050325],[6.836570166245981,51.254677288276106],[6.836518744926389,51.25471937140194],[6.836409625904524,51.25476322063126],[6.836295617460084,51.254801313449754],[6.836203784493705,51.25482497696613],[6.836077294067382,51.2548450316448],[6.835977015617793,51.25485626268616],[6.835873995892792,51.25486177704312],[6.835775569581581,51.254861035855605],[6.835680333997732,51.254856441433176],[6.835583646007072,51.254846154167694],[6.835494905920934,51.2548314271612],[6.835399924705961,51.2548122677577],[6.835307477778908,51.25478492611419],[6.83520055269097,51.254745445134596],[6.835101184072571,51.254700707765174],[6.832984898864132,51.25359499578601],[6.832780727635301,51.25349327525329],[6.83258095928189,51.25339851593731],[6.832382428165356,51.25331403178071],[6.832176980245657,51.25323036345417],[6.831961981049448,51.25314867623083],[6.8318017105267,51.2530917455679],[6.831649663930646,51.2530427914254],[6.8314927274791,51.25299725392669],[6.831289077964647,51.2529393837227],[6.831108623822786,51.252891116476455],[6.830903312233261,51.25284117403367],[6.830594832673097,51.252772590609865],[6.830374663078148,51.25272776786085],[6.830252737643118,51.252687464537466],[6.829779023372863,51.25258532689107],[6.827778523583658,51.25219287276755],[6.82482554248838,51.25161364873015],[6.824555606959853,51.25156681057829],[6.824436556778583,51.251547734304054],[6.824335328402612,51.25152453749815],[6.824215355712727,51.25148858101112],[6.824107512524463,51.25145069151591],[6.824054785803908,51.251429205800015],[6.823703594895027,51.25128224073121],[6.823555209615409,51.251228892264],[6.823382130233852,51.25117953603502],[6.823114757462493,51.251114935044605],[6.82293958511126,51.251073498474554],[6.822694451097428,51.25102050720849],[6.822161985567762,51.250952319902574],[6.821968623582608,51.25092281945742],[6.821744547395227,51.2508973336073],[6.821627790754131,51.25088436777205],[6.821596423216624,51.250956766169146],[6.821534260206042,51.251107644211004],[6.821452860345327,51.251292564252076],[6.821334594772569,51.25147517898526],[6.821247722377176,51.25158485617189],[6.821139486558255,51.2516917072352],[6.821031817462108,51.251786562411404],[6.820887160132049,51.251899884838046],[6.820780586376299,51.25197155691738],[6.820695472468978,51.2520258214323],[6.82009897783222,51.252383938997646],[6.81869224195028,51.253237154034395],[6.817984997912094,51.25366348066065],[6.817852330345707,51.25375031223025],[6.817707695428377,51.253853783301125],[6.817587754420424,51.253944224496436],[6.817022715073942,51.25439060005386],[6.816952343098988,51.25443299566143],[6.816818401379379,51.25448310875671],[6.816762471744804,51.25451106931271],[6.816714646575745,51.25454039518565],[6.816669611255514,51.2545743597887],[6.81584675792896,51.25523459627425],[6.815440850582815,51.25555240436929],[6.813891826683339,51.256781578031514],[6.813694199199576,51.25695029142738],[6.8135117726659,51.25711578106369],[6.813222503700952,51.25735805699898],[6.8129483766948,51.25759832189374],[6.812918891935069,51.257703129864915],[6.812877896129096,51.25792360414539],[6.812870974788783,51.25796070793964],[6.812794619434068,51.25821950817119],[6.812675098228441,51.25856329962262],[6.812403676587351,51.2593440342268],[6.812047486873702,51.2595734545844],[6.812011938257163,51.25958857351788],[6.811890036305225,51.25962015470451],[6.811695938505019,51.25965982885781],[6.811670405560681,51.25967230203164],[6.811575276999955,51.259737704558376],[6.811645709608331,51.259821042625425],[6.811700070053309,51.25986253004253],[6.811796829340985,51.259907643253726],[6.811783538506265,51.25993397055502],[6.811766201732624,51.25996399947178],[6.811761123688052,51.25997132416197],[6.811723153878188,51.26002835248429],[6.811606486808748,51.26020316308283],[6.811470778084586,51.26034429646274],[6.811386152909985,51.26043296364886],[6.811383889481171,51.26043534956439],[6.811305579820544,51.260517794385805],[6.811293826594117,51.260529850701516],[6.81124863875772,51.260539662809734],[6.811275157831359,51.26059695288518],[6.811150828053004,51.26061621175777],[6.811023901151774,51.26063582662419],[6.810947664157941,51.26064748604351],[6.81092861290983,51.26065023241184],[6.81081733844158,51.26066622768837],[6.810754503308356,51.26067638397047],[6.810692078566657,51.260686952605326],[6.810568562748118,51.26070717040966],[6.809696504541182,51.26086055835158],[6.80956249070986,51.26088449077929],[6.809528184094085,51.260891538050004],[6.809503470479194,51.26089579702546],[6.809453164734566,51.260904703223446],[6.809433645204929,51.260908249999865],[6.809409803665614,51.26091225547534],[6.809388982399843,51.26091604768113],[6.809333899328047,51.26092594361678],[6.809302247387622,51.26093142168612],[6.809261008640423,51.260930514740956],[6.809210132156515,51.26094237801075],[6.809204431163202,51.260926622555964],[6.807887585771272,51.261146135282395],[6.807113719509831,51.26127800528778],[6.807118412972103,51.26129684473175],[6.806616577484998,51.26137809407893],[6.805478998595046,51.26157112634286],[6.804946191053138,51.26165246222686],[6.804731283440545,51.261686338433805],[6.804537947609459,51.2617187303342],[6.804321224468302,51.261754595271505],[6.804117499535236,51.26178841037719],[6.803918070751371,51.26182230575584],[6.803711812362622,51.261855128292936],[6.803507182290822,51.26188986967249],[6.803281813283698,51.26192664962838],[6.803176471177949,51.26194436786878],[6.803071975427193,51.261962371710204],[6.802893752073224,51.261993425796454],[6.802635817935955,51.26203674292605],[6.80254605189355,51.26205245973851],[6.802456696147471,51.262068588896256],[6.802358670260578,51.262086173992806],[6.802260676454241,51.26210308509573],[6.802178753116589,51.26211665557372],[6.802097246516309,51.262130503627766],[6.801939337477713,51.262159374665664],[6.801802802529772,51.262181901862924],[6.801716049897367,51.26219753974592],[6.80163011147413,51.26221413718134],[6.801611033336169,51.262217421145486],[6.801562058688065,51.26222540465359],[6.80154169160013,51.26222866439084],[6.801250372549605,51.26225961471114],[6.801204476099938,51.26226617197691],[6.801144779455383,51.26227354913357],[6.800897295318677,51.26231409094651],[6.800781646361948,51.26233147844271],[6.800513646373181,51.26237837902085],[6.800255791667142,51.26241993868285],[6.800196825247956,51.26243002714307],[6.799909713580404,51.26248088396007],[6.799563595975204,51.262542636893144],[6.798657764651085,51.26269031646226],[6.798278255527254,51.262739835794854],[6.79824926921055,51.26274347240094],[6.797998113056476,51.262779757027424],[6.797803507124674,51.26280253584102],[6.797689638908825,51.26281860477665],[6.797451564832084,51.26285108735183],[6.797014686125467,51.26289520586973],[6.796799758970904,51.26291126001174],[6.796773023849625,51.26291278019071],[6.796729949059596,51.26291426252146],[6.796707953000188,51.262915602108315],[6.796685937598283,51.26291734603575],[6.796671245619512,51.26291882314209],[6.796656963950285,51.26292071268122],[6.796642207497304,51.262923537599704],[6.796563849116863,51.262952415324605],[6.796534972151893,51.262953760215915],[6.796520312395165,51.26295456339525],[6.796488004657649,51.26295570877],[6.796455696918799,51.26295685413578],[6.796415636094535,51.26295825820316],[6.79637557526825,51.26295966225681],[6.796326947187598,51.262960365348285],[6.796278319106086,51.26296106841954],[6.79623830986195,51.26296139417374],[6.796197870965438,51.26296171182266],[6.796151013080411,51.262961368955054],[6.796104155196606,51.262961026068695],[6.796070622980268,51.26296079923688],[6.796059015922813,51.262960715532024],[6.796037546212744,51.26296004136154],[6.795992471432506,51.26295838298398],[6.795967577406363,51.26295737449877],[6.795940405233957,51.262986001756616],[6.795836571257908,51.262981078120866],[6.79572762017974,51.26297524858445],[6.79561870783364,51.262968610257985],[6.795547136545899,51.262963484702304],[6.795475616880539,51.26295728085127],[6.795418692498477,51.262951621732164],[6.795410997469385,51.26295066734285],[6.794545962384894,51.26644912948339],[6.794522024717678,51.26654486414024],[6.79362561595986,51.27014754680653],[6.793593621528135,51.27031260433456],[6.793569060739279,51.270457161865906],[6.793546911258416,51.27064115649619],[6.793533701842398,51.270827073417],[6.793533991161373,51.271000563974205],[6.793546380917088,51.2711818372346],[6.793560323159396,51.27130378249631],[6.793579541442125,51.27141436048476],[6.793607787664535,51.27153401226797],[6.793668609589789,51.27175478083487],[6.793746227564437,51.27198409508255],[6.793784654925468,51.272079791137216],[6.793850609799281,51.27222038915495],[6.793921165951839,51.27235473343502],[6.793980697098911,51.27246782499832],[6.794048484013983,51.27257918350818],[6.794108842230453,51.27267502302605],[6.794190527181383,51.27279257913819],[6.794262527794934,51.27288782859527],[6.794341327148577,51.27298482497665],[6.794402822761375,51.273056942870085],[6.79451408418799,51.2731766749904],[6.794635780027268,51.27330307896798],[6.794746424733263,51.27340876934118],[6.794838783337482,51.27349212588498],[6.794971382282108,51.2736064587875],[6.795109287354648,51.27371778874],[6.795287717494694,51.27385416448715],[6.795415744951528,51.27394723100597],[6.79548779515349,51.27399661365273],[6.795581208086892,51.27405800029431],[6.795762835006452,51.27417258125887],[6.79599205769686,51.27430829372811],[6.796274777413525,51.27446767678955],[6.796435401829753,51.27455380141836],[6.796689524712965,51.27468161736335],[6.797699341019349,51.27521581825086],[6.798586546704896,51.27569684559579],[6.798943755863238,51.27589107908316],[6.799236116249464,51.276056167140744],[6.799482618684212,51.27619975209198],[6.799704409890175,51.27632938165385],[6.799925123803503,51.27646357722212],[6.800190337884237,51.27662977133768],[6.800394497553276,51.27676837642061],[6.800685360486547,51.27697403830573],[6.801057675103002,51.277248681189924],[6.801369461138045,51.27750275976916],[6.801707898492093,51.277793357084605],[6.801918051024544,51.27798684243171],[6.802159799010358,51.278221391509476],[6.802273261197516,51.27834075256046],[6.802449021756443,51.27853386087115],[6.802592167643642,51.27869829680816],[6.802693148545196,51.278817827788124],[6.802799862959899,51.278952440498564],[6.802982088551182,51.279190456974995],[6.803082876256332,51.27933210798321],[6.803248276775919,51.279580195671656],[6.803266368468095,51.27957068737012],[6.803366552727821,51.27951766246058],[6.803466416277277,51.27946233810441],[6.803544184703262,51.27941927982939],[6.803557439062819,51.279411974040784],[6.803632858934714,51.279373053608964],[6.803745763955561,51.27931487100667],[6.803517478244041,51.27898722545132],[6.803786009210328,51.27899428844927],[6.804148628804797,51.2790039256231],[6.80433724212979,51.279008948260326],[6.804405106205172,51.27901116574989],[6.804476408722921,51.2790134477043],[6.806026206195258,51.279062206954066],[6.806082478565008,51.27906393636036],[6.806148636461523,51.27906585104819],[6.806161947579602,51.27906637037471],[6.806241859255374,51.27906854282758],[6.806290407992776,51.27906985755205],[6.806297701838747,51.279070264074036],[6.806304142496782,51.279070519700866],[6.806345814352298,51.27907170550131],[6.806371160026742,51.27907245037573],[6.807315731273555,51.27910215745135],[6.807394578054355,51.2791086260428],[6.80747293086016,51.27911643435123],[6.807550802535634,51.279125312813285],[6.807603822500805,51.27913210685075],[6.807628616473402,51.27913540426365],[6.807705949291622,51.27914656586915],[6.807783217965208,51.279159075246085],[6.807859575723588,51.27917264672902],[6.807935452378064,51.2791872883701],[6.808010411708629,51.279203126902516],[6.808085319752094,51.279220043645374],[6.808159310481511,51.27923815728208],[6.80823239031844,51.279257333032156],[6.80830498265775,51.27927771372858],[6.808376664112998,51.27929915654134],[6.80844744110418,51.279321526689856],[6.808517294385443,51.27934522852264],[6.808586679434407,51.279369730960205],[6.808654717388011,51.27939542225487],[6.808721850889981,51.27942204089187],[6.808731550451486,51.27942613466968],[6.808741699071099,51.27942983214722],[6.808752283917388,51.279433402889],[6.808772241172705,51.279438902840305],[6.808792673150741,51.27944346735941],[6.808813592681289,51.27944682688145],[6.808834986932125,51.27944925097076],[6.808856868732605,51.27945047006244],[6.80887837846169,51.279450468062414],[6.80889993951218,51.27944938780002],[6.808921558297655,51.279447094492845],[6.808942792176681,51.27944384965883],[6.808963224168401,51.27943937568696],[6.808982847856473,51.27943380735996],[6.809002086634362,51.279427287506955],[6.809020087296991,51.27941966525305],[6.809037260408711,51.27941135299209],[6.809053195404095,51.27940193833122],[6.809067443229508,51.2793918175717],[6.809080440109034,51.27938086397798],[6.809174857188143,51.27942175315178],[6.809319434068777,51.279484356131036],[6.809367059783739,51.279505078242856],[6.809495618634272,51.279560770959236],[6.809590036456513,51.27960165980577],[6.809687828812309,51.279643960753255],[6.809703564810326,51.279629685794184],[6.809936800318683,51.279420230262154],[6.810046001851942,51.27933121458292],[6.810168308535526,51.279228953775814],[6.810304130749208,51.279113860185696],[6.810440741375407,51.27900026511689],[6.810578185293008,51.2788872250895],[6.810717315699084,51.27877489096325],[6.81085770278523,51.27866325469255],[6.810999769941982,51.27855245909439],[6.811143100181221,51.27844222655913],[6.811287687091536,51.27833269186464],[6.811433954062229,51.27822399782624],[6.811581047900834,51.278115993581366],[6.811729828202489,51.2780086951995],[6.811879865166496,51.27790209463847],[6.8120315885864,51.27779619992861],[6.812184555853384,51.27769127259406],[6.812326412521878,51.277593826810495],[6.812469532349076,51.277496944077434],[6.812613908928682,51.2774007591729],[6.812759112468881,51.27730526405986],[6.8129055791642,51.27721033198443],[6.813053296207396,51.27711623250733],[6.813201846614988,51.27702268802761],[6.813280313407043,51.27697370069641],[6.813396387399986,51.27690275236401],[6.813512441832187,51.2768322082597],[6.813629766064579,51.2767620924711],[6.813689091926902,51.27672664222578],[6.813822310290044,51.27664791961172],[6.813956362167731,51.27656975202671],[6.814091247560744,51.27649213946793],[6.81422696007109,51.27641521671539],[6.814363518896251,51.27633857941763],[6.814489410616918,51.276269162390356],[6.814616135930049,51.27620030040486],[6.814743682042047,51.27613226302423],[6.814872478736188,51.27606505827045],[6.815002089838419,51.27599881289827],[6.815132964320553,51.27593313057979],[6.815265082995044,51.27586841565969],[6.815358344820137,51.27582482943464],[6.815463959990295,51.27577472860936],[6.815570408906344,51.27572518286143],[6.815677274582029,51.27567591460102],[6.81578496121749,51.275627470980226],[6.815890883768764,51.2755799386555],[6.815997640079153,51.27553296140472],[6.816104806768378,51.275486396422636],[6.816230773179186,51.27543343702511],[6.816357560495675,51.27538130222445],[6.816484751732765,51.27532971443341],[6.816612763883274,51.27527895123494],[6.816741596951637,51.275229012626426],[6.816848961891115,51.2751873071527],[6.816970803073738,51.275139666106355],[6.817093465208122,51.27509284966116],[6.817216961078199,51.275046588248266],[6.817340848136516,51.27500114341607],[6.817465985929108,51.274956531193176],[6.817591514919584,51.27491273554678],[6.817704312049234,51.27487436825198],[6.817817942979563,51.27483655600596],[6.817931965168525,51.274799560359625],[6.818046391395937,51.27476311174545],[6.818161645046287,51.27472735295784],[6.818199648025063,51.27471511082979],[6.818237670144213,51.274702464339406],[6.818274839093415,51.27468966702935],[6.818312027181843,51.27467646535745],[6.818337849695117,51.274667098869145],[6.818363678584371,51.27465759759175],[6.818389077695529,51.274648088297035],[6.818429382655622,51.27463265135148],[6.818469283365888,51.274616667247415],[6.818508767053422,51.27460040555178],[6.818547833717826,51.274583866265026],[6.818552252718454,51.27458138549119],[6.818591806589374,51.27456364115058],[6.818631373201135,51.2745456272296],[6.818670093019954,51.274527327707396],[6.818708408583086,51.2745084810285],[6.818847298230066,51.27447316211245],[6.818955240144916,51.27444643963486],[6.819063586165553,51.27442026419837],[6.819208896229834,51.27438560411365],[6.819335015543972,51.27435652196528],[6.819461538934935,51.274327986819955],[6.819588036641856,51.274299990669334],[6.819715361815824,51.27427268431008],[6.819725199640479,51.27429202371571],[6.819867655816932,51.27426311044868],[6.820010516057564,51.27423474414509],[6.820153344221768,51.27420705158206],[6.820296582840853,51.27417977119727],[6.820440225537877,51.27415303777273],[6.820583842553961,51.27412684330367],[6.820727433894271,51.27410118779024],[6.820871859089714,51.27407608723718],[6.821016258618796,51.27405152563794],[6.821161062249312,51.27402751099394],[6.821305846600946,51.27400390051947],[6.821450598923235,51.273980963781796],[6.821484830732415,51.27397566531153],[6.821630416900491,51.27395328348349],[6.821647317905158,51.273950630223354],[6.821731354880099,51.27393816458807],[6.821837039303947,51.27392272923998],[6.821942710908223,51.27390756336274],[6.822048376070216,51.27389253217282],[6.822154015665548,51.27387804002115],[6.822260084958532,51.27386355577044],[6.822366128689598,51.27384961055733],[6.822525389929621,51.273829100905026],[6.82268462553987,51.27380913016892],[6.822844258913843,51.273789841127865],[6.823004290058155,51.273771233780316],[6.823164289218994,51.2737533001309],[6.823324262775036,51.273735905396116],[6.82348462774993,51.27371932713626],[6.823644973503731,51.273703153006515],[6.823805710690193,51.273687795349794],[6.823966845687305,51.27367311938079],[6.824127525351162,51.273658974333586],[6.82428860283871,51.27364551097333],[6.824396109806797,51.27363698721855],[6.824503604001631,51.273628732932195],[6.824611521552818,51.27362062131897],[6.824718990206591,51.27361290596924],[6.824826875852574,51.273605468075814],[6.82493431897325,51.27359829166294],[6.824942707237844,51.273611937784274],[6.824975445391966,51.27366556280234],[6.824989808946445,51.27368930273516],[6.824995399021637,51.273698445074885],[6.825058039211558,51.2738020000012],[6.825086311273618,51.27385001099464],[6.825267892384926,51.27414922591363],[6.825326977811241,51.274246104416775],[6.826187860496961,51.27566386659664],[6.826812528191264,51.276691955335664],[6.827411251690353,51.27767787403586],[6.827465550916753,51.27776697308],[6.827885477539072,51.27845831630621],[6.828306623284709,51.2791514342193],[6.828622059661426,51.27955956483709],[6.828985895976671,51.279890214302604],[6.829512163157712,51.280161010717826],[6.83027837199222,51.28044340300204],[6.830578068230761,51.2805835907972],[6.830822287612386,51.28052255510017],[6.830844266270015,51.280576518532236],[6.830863913710581,51.280625177576766],[6.830873554287956,51.28064882919346],[6.830882104325143,51.280659105303826],[6.830902067128742,51.28068281332386],[6.830921106557339,51.28068046814972],[6.830986884888286,51.28067224408386],[6.831103719397777,51.280657816348594],[6.831166825440399,51.2806423928563],[6.831393135768169,51.280587094680804],[6.831543716124062,51.280550358458555],[6.831616398685974,51.28053254902176],[6.831931920454722,51.28045556459466],[6.832012870971342,51.28043574964318],[6.832120370830411,51.28040941151395],[6.832246581539934,51.2803785633809],[6.832288795014605,51.28036828329284],[6.832216478608178,51.280195618389584],[6.832007731651686,51.27983237294211],[6.831650338361561,51.279264020217674],[6.831096975386698,51.27836300876674],[6.831208394739444,51.27837208845575],[6.831351632490071,51.27838148783206],[6.831555326968798,51.27839510994882],[6.831659971173088,51.27840190524315],[6.831888844297915,51.278273671675265],[6.832006371530476,51.27820785825262],[6.832113733668402,51.27814779210833],[6.832685079913084,51.27782651516797],[6.832710706352206,51.27781215051412],[6.832734575500828,51.27779856272474],[6.832748716179895,51.27779059556332],[6.832779639777527,51.27777336114419],[6.832831783846687,51.277743973782705],[6.832858301518474,51.277728951090374],[6.832872884644412,51.27772072230304],[6.833551597724521,51.27733896963847],[6.833678848437919,51.277267533766725],[6.833806547578228,51.27719570135248],[6.833978430669647,51.2770990551772],[6.834181241927165,51.27698503915054],[6.834224553741739,51.276960479099536],[6.834304084972533,51.27691581437286],[6.834306733474806,51.27691437946154],[6.834308952183644,51.276912936596865],[6.834339874610141,51.276895701749055],[6.834341195690099,51.2768950516853],[6.834558921768437,51.277003494533325],[6.834722839509086,51.2770853100843],[6.834859447234975,51.27711670644367],[6.83494924667384,51.277137253983796],[6.835285924725817,51.27722266926839],[6.8355912945888,51.277232903800744],[6.835629091344982,51.277234142410286],[6.835678335277182,51.27722979191901],[6.835833841373908,51.277216074670555],[6.835937948189003,51.27720680288535],[6.835945244093763,51.27718886093465],[6.83599817382,51.277060333786686],[6.836022899884016,51.27700102942423],[6.835969833097635,51.276711492959585],[6.835908883771628,51.27637918168189],[6.835934740784555,51.2763781758866],[6.836340608983768,51.2763642307021],[6.837363466735612,51.27632904072034],[6.837519006632358,51.276323685796136],[6.83832385196293,51.276295925558905],[6.838421224665926,51.27629259778098],[6.838470770590305,51.27629094973742],[6.838543588375072,51.27628838245839],[6.838769790538048,51.27628055364183],[6.839129992181343,51.276268048795984],[6.839411499895207,51.27638332607346],[6.839579811320249,51.27644498061477],[6.83973202514069,51.27650134640384],[6.840077827390159,51.276630759397996],[6.840252277707748,51.27669913644496],[6.840452587928119,51.276592213294485],[6.8406439472354,51.27651102581003],[6.840740132342603,51.276459649129286],[6.841097743556809,51.2763831469506],[6.841558603804705,51.2762696962194],[6.841705692312178,51.27623355714625],[6.84185951173298,51.276191471427865],[6.841883042534071,51.27618502534941],[6.841937505287564,51.27617024612647],[6.841955373005473,51.27616531442966],[6.84205306847403,51.27620097621216],[6.842280618534095,51.27628368459005],[6.843525960783778,51.276668849386766],[6.845001662560791,51.27704057056427],[6.846641388092912,51.277456031305974],[6.846818534082596,51.27749463478627],[6.846811563835929,51.27750570339099],[6.846790071980424,51.27754213615239],[6.846831346793287,51.27755179903355],[6.846847945205393,51.27755561184915],[6.846899004653312,51.277567613146374],[6.846962409080625,51.27753640317678],[6.846976503143952,51.277529377765994],[6.847011444403714,51.27753649583765],[6.847241420223923,51.27758605325184],[6.848356371521578,51.27782658117512],[6.849594937958237,51.27814693819831],[6.850062081988693,51.27827652731776],[6.850563370097723,51.27842117610813],[6.850704035160057,51.27846733264995],[6.850736658777115,51.27847804938078],[6.850935776388636,51.278543760578366],[6.851075227287392,51.278671240042684],[6.851104418912453,51.2786817587519],[6.851140797863368,51.278694972548486],[6.851233878680219,51.2787283834134],[6.851277027801049,51.27874401479342],[6.85121930319987,51.278671996741494],[6.851201238661747,51.278644280049505],[6.851186354716167,51.27862215271694],[6.851162883079667,51.27858125128666],[6.851151513174919,51.27855756964935],[6.851138941920945,51.27853197733065],[6.851122873556391,51.2784983616056],[6.851096766848963,51.27843097106254],[6.851084067837035,51.27839890111385],[6.851047769952709,51.2782917972623],[6.851007297987226,51.27817274541035],[6.850982720132215,51.2781002566473],[6.850954701916352,51.27801853139442],[6.85114313584638,51.278055042228694],[6.850770045716623,51.27683218806355],[6.850687270708574,51.27673475287087],[6.850582335608204,51.27672500141329],[6.850476111167104,51.276715226180414],[6.850524068341888,51.276701537603365],[6.850893219424627,51.276681606404765],[6.851267982728827,51.276661237476276],[6.851353222847552,51.276641353081274],[6.851429464499568,51.276602282295194],[6.851462275795584,51.27655364555738],[6.851472918044341,51.276491516370825],[6.851390107300725,51.2761551702],[6.851441416093221,51.27609729504166],[6.85168219509189,51.27605355523832],[6.852224988528634,51.27590743652178],[6.853128841457159,51.27568403035584],[6.853158431499145,51.27567674886021],[6.853247637641554,51.275654777424954],[6.853451980072979,51.27562668873326],[6.85353294084933,51.275615492881755],[6.854303052570024,51.27557565404895],[6.854924609243579,51.2754928867433],[6.855707871414261,51.27533685964498],[6.856354949547866,51.27521394700254],[6.856661247500014,51.275093154157325],[6.857301460043093,51.27480337224379],[6.857427124332189,51.2747465860203],[6.857585752214629,51.274665446314394],[6.857918694390851,51.274489558518624],[6.858070427610007,51.27438090695194],[6.858246441314938,51.27428659439997],[6.858325754140266,51.27425526476128],[6.858475173821588,51.274233312039456],[6.858613655434081,51.27423382245059],[6.858994396904763,51.27426938753395],[6.859194400228463,51.27428815522228],[6.859716823393149,51.274357202011736],[6.859951327183611,51.27430928347795],[6.860175895196083,51.27421599080147],[6.860566241092013,51.27403561413962],[6.861167120008806,51.273739831062514],[6.861383278981748,51.27367929838163],[6.861516193209639,51.27364220101036],[6.862366313869505,51.27355507184344],[6.862665986226338,51.273539365559756],[6.863124166132242,51.273444802496215],[6.863928165271154,51.273109275680945],[6.864506783540813,51.27287539379577],[6.864871841294412,51.27275740555317],[6.865787112389999,51.272461263794234],[6.865799761571566,51.2724667556243],[6.865832228442763,51.272480837836625],[6.865840556319079,51.27247748226504],[6.86591852796872,51.27244706737564],[6.86540594362402,51.271024761169556],[6.865617966794849,51.27096954138011],[6.865594910335179,51.2703070243611],[6.865814173518039,51.27006766083502],[6.866245548183523,51.26969672337155],[6.86683486517666,51.26904496554185],[6.867378048187968,51.26845104623771]]]]}},{"type":"Feature","id":"duesseldorf-stadtteil-064","properties":{"name":"Mörsenbroich","stadtteil_code":"064","parent_stadtbezirk":"06","year":2025,"metric_scope":"police_published_BV6_local_cases_only","metrics":{"all_offenses":{"2022":1073,"2023":976,"2024":1012,"2025":1096,"rate":null},"street_crime":{"2022":252,"2023":240,"2024":224,"2025":256,"rate":null},"street_robbery":{"2022":3,"2023":4,"2024":2,"2025":2,"rate":null},"street_injury":{"2022":4,"2023":5,"2024":6,"2025":9,"rate":null},"vehicle_related_theft":{"2022":46,"2023":56,"2024":44,"2025":84,"rate":null},"bicycle_theft":{"2022":64,"2023":40,"2024":50,"2025":33,"rate":null},"pickpocketing":{"2022":16,"2023":9,"2024":13,"2025":18,"rate":null},"residential_burglary":{"2022":30,"2023":43,"2024":45,"2025":71,"rate":null}}},"geometry":{"type":"MultiPolygon","coordinates":[[[[6.822161985567762,51.250952319902574],[6.822160546872722,51.25075533515716],[6.822135172416684,51.25019150908754],[6.822106025455208,51.249407316560294],[6.822005374796808,51.24753447659152],[6.821971014049803,51.246314855288055],[6.821982552470752,51.245788679284665],[6.821962358161566,51.2456156277545],[6.821825610378031,51.245589339209175],[6.821699988759589,51.24555502856982],[6.821500443921856,51.245502208779286],[6.821299398183781,51.24544477400029],[6.821000115620196,51.2453466573967],[6.815402831292297,51.24337644019495],[6.81530402057161,51.24333898081702],[6.815200715778756,51.24329658092745],[6.81495170887911,51.24319938743273],[6.814735934880201,51.24311751853178],[6.814371017340069,51.243017214513294],[6.812311056851841,51.24424221749677],[6.810794217348441,51.24514413755834],[6.806321561426502,51.24779606580209],[6.804901224496118,51.24863456153756],[6.802484756486126,51.25006747073577],[6.801933557335094,51.250383852711906],[6.801621030099667,51.25054553093186],[6.800617603305518,51.250968616571974],[6.799705888129315,51.251325427150306],[6.799546330352636,51.25138056987487],[6.799029632226304,51.251567945230256],[6.798596168625621,51.25171385022579],[6.798215920718366,51.25183471870613],[6.79780133702493,51.25196330373506],[6.797470829030689,51.25205987905656],[6.797047847836432,51.25219315988004],[6.79654487483805,51.252335860006056],[6.79597689184733,51.252489339837915],[6.795746674777627,51.252538424829254],[6.794634726184945,51.25277446293758],[6.794156925776333,51.25286703860813],[6.79361094997056,51.252964667259086],[6.79355190280649,51.253183176280345],[6.793452447595606,51.253329694364375],[6.793418457380322,51.253500785185885],[6.793269166480811,51.2545352405925],[6.793273091343666,51.25455204260995],[6.793264247029231,51.254620001932565],[6.793252006547279,51.254642165017984],[6.792854216505981,51.25739923328486],[6.792822517753715,51.25745057308446],[6.79280891907309,51.25744721380458],[6.792794849796969,51.25748957781725],[6.792766036561102,51.257597361550545],[6.79269481907193,51.25789914553949],[6.792561666265457,51.258407646851815],[6.792509841539642,51.25860079480755],[6.792387892118465,51.25901898724476],[6.792339450965553,51.25919533606012],[6.792309323930419,51.25929459598415],[6.792192981572036,51.25971235437401],[6.792184757599337,51.25974039396012],[6.791918351414179,51.260678205101605],[6.791862751378578,51.26086925795545],[6.791877678647963,51.26087183298941],[6.791871405367829,51.26089505284934],[6.791864169445347,51.260920412993315],[6.791890102408703,51.26095354890493],[6.791905840518637,51.260984064178885],[6.791915890042734,51.26098074633133],[6.791921740156601,51.260993267807656],[6.79192364281762,51.260998430028465],[6.791927935918884,51.26100754954629],[6.791931844612868,51.26101571748856],[6.791935375359699,51.261022799074105],[6.791944533337471,51.26103808102942],[6.791944442890036,51.26103996796619],[6.791951927564845,51.26105427402459],[6.791960995107278,51.26107144291549],[6.791968140605167,51.26108385392919],[6.791970069116709,51.261088477024494],[6.791977996361522,51.26110252162583],[6.791979143132732,51.26110551113285],[6.791988171932336,51.26112348870891],[6.791998547784402,51.26114027757396],[6.791998809448152,51.26114378999197],[6.792007537835777,51.26115906383582],[6.792011453016352,51.26116709699435],[6.792016566656381,51.261177041409816],[6.79202689084773,51.26119490852207],[6.792037208586654,51.26121291041466],[6.792047487571812,51.26123172099362],[6.792050705001882,51.261236368407566],[6.792057805326589,51.26124972288451],[6.79206859794609,51.26126678941265],[6.792070975490783,51.261271016269326],[6.792080211083027,51.26128468084014],[6.792090574083061,51.26130173925984],[6.792094854323672,51.261311128334256],[6.792099641723373,51.26131890814053],[6.792106864816695,51.26132970177173],[6.792121727729174,51.26135156670167],[6.792137039671888,51.26137303539251],[6.79216938214592,51.261416005193354],[6.792200981683103,51.2614565327117],[6.792233889566618,51.26149668019624],[6.792259177005524,51.26152535203816],[6.79228447739484,51.26155375431244],[6.792353239521426,51.26162641533174],[6.79235845663497,51.26163420323351],[6.792385837605281,51.261673032274174],[6.792391552100997,51.26167044202036],[6.792845998195621,51.26204932349151],[6.792905037789968,51.262091582499636],[6.792934996957833,51.262112517924514],[6.792965834813367,51.26213306520491],[6.793008379837844,51.262160578431455],[6.793052246133129,51.26218744204585],[6.79309657441114,51.262213639840816],[6.793141774943487,51.262239584262424],[6.793189521110056,51.2622662511889],[6.793237722805334,51.26229238707368],[6.793286803216961,51.26231813479971],[6.793336332699529,51.26234348626388],[6.793340949036729,51.26234586666814],[6.793386330622456,51.2623680371217],[6.793437200804099,51.262392334599454],[6.793488526511402,51.26241610103189],[6.79354072447756,51.26243961408235],[6.793598417521607,51.2624651193627],[6.793656989291725,51.26249023647306],[6.793716016596324,51.262514822530136],[6.793775935537249,51.262538750852364],[6.793838432427873,51.26256272774586],[6.793901404218384,51.26258576923729],[6.793965248279152,51.26260855733233],[6.794029554326296,51.262630679586],[6.794139168039004,51.262667550899664],[6.794194645252937,51.26268545954163],[6.79425012896478,51.26270323337639],[6.794335320306451,51.26272925661608],[6.794377730231237,51.26274165764774],[6.794421018839797,51.262753670516304],[6.794468154959731,51.26276616059468],[6.79451616976597,51.26277826250568],[6.794836484073137,51.262869422933804],[6.795087325282877,51.262911652694044],[6.795292884492558,51.262938594158214],[6.795410997469385,51.26295066734285],[6.795418692498477,51.262951621732164],[6.795475616880539,51.26295728085127],[6.795547136545899,51.262963484702304],[6.79561870783364,51.262968610257985],[6.79572762017974,51.26297524858445],[6.795836571257908,51.262981078120866],[6.795940405233957,51.262986001756616],[6.795967577406363,51.26295737449877],[6.795992471432506,51.26295838298398],[6.796037546212744,51.26296004136154],[6.796059015922813,51.262960715532024],[6.796070622980268,51.26296079923688],[6.796104155196606,51.262961026068695],[6.796151013080411,51.262961368955054],[6.796197870965438,51.26296171182266],[6.79623830986195,51.26296139417374],[6.796278319106086,51.26296106841954],[6.796326947187598,51.262960365348285],[6.79637557526825,51.26295966225681],[6.796415636094535,51.26295825820316],[6.796455696918799,51.26295685413578],[6.796488004657649,51.26295570877],[6.796520312395165,51.26295456339525],[6.796534972151893,51.262953760215915],[6.796563849116863,51.262952415324605],[6.796642207497304,51.262923537599704],[6.796656963950285,51.26292071268122],[6.796671245619512,51.26291882314209],[6.796685937598283,51.26291734603575],[6.796707953000188,51.262915602108315],[6.796729949059596,51.26291426252146],[6.796773023849625,51.26291278019071],[6.796799758970904,51.26291126001174],[6.797014686125467,51.26289520586973],[6.797451564832084,51.26285108735183],[6.797689638908825,51.26281860477665],[6.797803507124674,51.26280253584102],[6.797998113056476,51.262779757027424],[6.79824926921055,51.26274347240094],[6.798278255527254,51.262739835794854],[6.798657764651085,51.26269031646226],[6.799563595975204,51.262542636893144],[6.799909713580404,51.26248088396007],[6.800196825247956,51.26243002714307],[6.800255791667142,51.26241993868285],[6.800513646373181,51.26237837902085],[6.800781646361948,51.26233147844271],[6.800897295318677,51.26231409094651],[6.801144779455383,51.26227354913357],[6.801204476099938,51.26226617197691],[6.801250372549605,51.26225961471114],[6.80154169160013,51.26222866439084],[6.801562058688065,51.26222540465359],[6.801611033336169,51.262217421145486],[6.80163011147413,51.26221413718134],[6.801716049897367,51.26219753974592],[6.801802802529772,51.262181901862924],[6.801939337477713,51.262159374665664],[6.802097246516309,51.262130503627766],[6.802178753116589,51.26211665557372],[6.802260676454241,51.26210308509573],[6.802358670260578,51.262086173992806],[6.802456696147471,51.262068588896256],[6.80254605189355,51.26205245973851],[6.802635817935955,51.26203674292605],[6.802893752073224,51.261993425796454],[6.803071975427193,51.261962371710204],[6.803176471177949,51.26194436786878],[6.803281813283698,51.26192664962838],[6.803507182290822,51.26188986967249],[6.803711812362622,51.261855128292936],[6.803918070751371,51.26182230575584],[6.804117499535236,51.26178841037719],[6.804321224468302,51.261754595271505],[6.804537947609459,51.2617187303342],[6.804731283440545,51.261686338433805],[6.804946191053138,51.26165246222686],[6.805478998595046,51.26157112634286],[6.806616577484998,51.26137809407893],[6.807118412972103,51.26129684473175],[6.807113719509831,51.26127800528778],[6.807887585771272,51.261146135282395],[6.809204431163202,51.260926622555964],[6.809210132156515,51.26094237801075],[6.809261008640423,51.260930514740956],[6.809302247387622,51.26093142168612],[6.809333899328047,51.26092594361678],[6.809388982399843,51.26091604768113],[6.809409803665614,51.26091225547534],[6.809433645204929,51.260908249999865],[6.809453164734566,51.260904703223446],[6.809503470479194,51.26089579702546],[6.809528184094085,51.260891538050004],[6.80956249070986,51.26088449077929],[6.809696504541182,51.26086055835158],[6.810568562748118,51.26070717040966],[6.810692078566657,51.260686952605326],[6.810754503308356,51.26067638397047],[6.81081733844158,51.26066622768837],[6.81092861290983,51.26065023241184],[6.810947664157941,51.26064748604351],[6.811023901151774,51.26063582662419],[6.811150828053004,51.26061621175777],[6.811275157831359,51.26059695288518],[6.81124863875772,51.260539662809734],[6.811293826594117,51.260529850701516],[6.811305579820544,51.260517794385805],[6.811383889481171,51.26043534956439],[6.811386152909985,51.26043296364886],[6.811470778084586,51.26034429646274],[6.811606486808748,51.26020316308283],[6.811723153878188,51.26002835248429],[6.811761123688052,51.25997132416197],[6.811766201732624,51.25996399947178],[6.811783538506265,51.25993397055502],[6.811796829340985,51.259907643253726],[6.811700070053309,51.25986253004253],[6.811645709608331,51.259821042625425],[6.811575276999955,51.259737704558376],[6.811670405560681,51.25967230203164],[6.811695938505019,51.25965982885781],[6.811890036305225,51.25962015470451],[6.812011938257163,51.25958857351788],[6.812047486873702,51.2595734545844],[6.812403676587351,51.2593440342268],[6.812675098228441,51.25856329962262],[6.812794619434068,51.25821950817119],[6.812870974788783,51.25796070793964],[6.812877896129096,51.25792360414539],[6.812918891935069,51.257703129864915],[6.8129483766948,51.25759832189374],[6.813222503700952,51.25735805699898],[6.8135117726659,51.25711578106369],[6.813694199199576,51.25695029142738],[6.813891826683339,51.256781578031514],[6.815440850582815,51.25555240436929],[6.81584675792896,51.25523459627425],[6.816669611255514,51.2545743597887],[6.816714646575745,51.25454039518565],[6.816762471744804,51.25451106931271],[6.816818401379379,51.25448310875671],[6.816952343098988,51.25443299566143],[6.817022715073942,51.25439060005386],[6.817587754420424,51.253944224496436],[6.817707695428377,51.253853783301125],[6.817852330345707,51.25375031223025],[6.817984997912094,51.25366348066065],[6.81869224195028,51.253237154034395],[6.82009897783222,51.252383938997646],[6.820695472468978,51.2520258214323],[6.820780586376299,51.25197155691738],[6.820887160132049,51.251899884838046],[6.821031817462108,51.251786562411404],[6.821139486558255,51.2516917072352],[6.821247722377176,51.25158485617189],[6.821334594772569,51.25147517898526],[6.821452860345327,51.251292564252076],[6.821534260206042,51.251107644211004],[6.821596423216624,51.250956766169146],[6.821627790754131,51.25088436777205],[6.821744547395227,51.2508973336073],[6.821968623582608,51.25092281945742],[6.822161985567762,51.250952319902574]]]]}}]}
